subway_id,name,address,lat,lng,waze,business_hours
1,Subway Menara UOA Bangsar,"Jalan Bangsar Utama 1, Unit 1-2-G, Menara UOA Bangsar, Kuala Lumpur, 59000",3.128099,101.678678,https://www.waze.com/en/live-map/directions/my/federal-territory-of-kuala-lumpur/kuala-lumpur/subway-@-menara-uoa-bangsar?place=ChIJPWFRH5RJzDERvHvlO1uTQpY,"Monday - Sunday, 8:00 AM - 8:00 PM"
2,Subway One Utama,"318A One Utama, Lower Ground Floor, New Wing, 1 Utama Shopping Centre, Petaling Jaya, 47800",3.151251,101.615116,https://www.waze.com/en/live-map/directions/my/selangor/pj/1-utama-shopping-centre?place=ChIJL-Qvn9JOzDERBLmeTTrrgf0,0800 - 2200 (Sun - Thur); 0800 - 2230 (Fri & Sat)
3,Subway Jln Pinang,"G9, Wisma UOA II, 19, Jalan Pinang, Kuala Lumpur, 50450",3.152705,101.712034,https://www.waze.com/en/live-map/directions/my/wilayah-persekutuan-kuala-lumpur/kuala-lumpur/subway-@-jalan-pinang-kl?place=ChIJIzvym9Q3zDER9MZj809Opn0,"Monday - Saturday, 8:00 AM – 9:00PM; Sunday, 11:30 AM – 6:30PM"
4,Subway UOA Damansara,"Unit 50-G-5, Ground Floor, Wisma UOA Damansara, No. 50, Jalan Dungun, Kuala Lumpur, 50490",3.151729,101.666006,https://www.waze.com/en/live-map/directions/my/wilayah-persekutuan-kuala-lumpur/kuala-lumpur/subway-@-wisma-uoa-damansara?place=ChIJa5Vpq1RIzDER8-Wwe3eFNUI,"Monday - Saturday, 8:00 AM – 8:30PM; Sunday, Closed"
5,Subway The Mines,"Lot L1-93, Level 1, Mines Shopping Fair,Jln Dulang, Mines Resort City, Seri Kembangan, 43300",3.027692,101.718905,"https://www.waze.com/en/live-map/directions/subway-the-mines-shopping-mall-jalan-dulang,-l1-93-seri-kembangan?place=w.66650142.666632495.27412970","Monday - Sunday, 10:00 AM - 10:00 PM"
6,Subway Mont Kiara,"E-01-16 ,Block E, Plaza Mont Kiara, 2 Jalan Kiara, Mont Kiara, Kuala Lumpur, 50480",3.165686,101.651956,https://www.waze.com/en/live-map/directions/my/wilayah-persekutuan-kuala-lumpur/kuala-lumpur/subway-@-plaza-montkiara?place=ChIJ62Fw6vFIzDEReI7qDH2RtxQ,"Monday - Sunday, 10:00 AM - 10:00 PM"
7,Subway Amcorp Mall,"(Canopy Area), Lot KG-05, 18 Jln Persiaran, Ground Floor, Barat, Petaling Jaya, 46050",3.104774,101.647341,https://www.waze.com/en/live-map/directions/my/selangor/pj/subway-@-amcorp-mall-pj?place=ChIJgcEy_dpLzDERqz_XQPpVA2U,"Monday - Friday, 9:00 AM – 10:00PM; Saturday & Sunday, 10:00 AM – 10:00PM"
8,Subway Avenue K,"Lot UC-8 & 9, Upper Concourse Level, Avenue K, No. 156, Jalan Ampang, Kuala Lumpur, 50450",3.159477,101.713515,"https://www.waze.com/en/live-map/directions/subway-avenue-k-lot-uc-8-and-9,-upper-concourse-level,-avenue-k-kuala-lumpur?place=w.66650144.666566972.27413004","Monday - Sunday, 8:00 AM - 10:00 PM"
9,Subway Center Point,"Lebuh Bandar Utama, Center Point, Lot G104B Gr Floor, Petaling Jaya, 47800",3.136096,101.607964,"https://www.waze.com/en/live-map/directions/subway-lebuh-bandar-utama-lebuh-bandar-utama,-center-point,-lot-g104b-petaling-jaya?place=w.66584607.665911610.27441776","Monday, 8:00 AM – 10:00PM; Tuesday - Wednesday, 8:00 AM – 10:30PM; Thursday, 8:00 AM – 9:00PM; Friday & Saturday, 8:00 AM – 11:00PM; Sunday, 8:00 AM – 10:30PM"
10,Subway Shell Sunway Mentari,"1, Jalan PJS 8/9 (Shell) Bandar Sunway, 46000 Selangor",3.079525,101.609623,"https://waze.com/ul?ll=3.079525,101.609623","Monday - Sunday, Open 24 Hours"
11,Subway Berjaya Times Square,"Lot 03-103, 3rd Floor, Berjaya Times Square, No. 1, Jalan Imbi, Kuala Lumpur, 55100",3.142198,101.710551,"https://www.waze.com/en/live-map/directions/subway-berjaya-times-square-lot-03-103,-3rd-floor,-berjaya-times-square-kuala-lumpur?place=w.66650143.666566970.27413449","Monday - Sunday, 10:00 AM - 10:00 PM"
12,Subway Capsquare,"Ground Floor, Unit 01-02, Cap Square Tower, 10 Jalan Munshi Abdullah, Kuala Lumpur, 50100",3.154416,101.698823,https://www.waze.com/en/live-map/directions/my/wilayah-persekutuan-kuala-lumpur/kuala-lumpur/subway-@-capsquare?place=ChIJy-MVCLdJzDER31pWsrn_WZE,"Monday - Saturday, 8:00 AM – 9:00PM; Sunday, Closed"
13,Subway Aeon AU2,"Aeon AU2 Shopping Center, 6, Jln 37/36 Taman Setiawangsa, Lot G49, Taman Keramat, Kuala Lumpur, 54200",3.177185,101.750558,https://www.waze.com/en/live-map/directions/subway-aeon-au2-aeon-au2-shopping-center-kuala-lumpur?place=w.66715680.666829118.27413005,"Monday - Sunday, 10:00 AM - 10:00 PM"
14,Subway Lotus Setia Alam (LSA),"G14 Grd Floor Tesco Setia Alam, No.2 Jalan Setia Prima, U13/3 Seksyen 13, Shah Alam, 40170",3.099881,101.444419,https://ul.waze.com/ul?place=ChIJBb6IKftTzDERwi2y4LrXS-w&ll=3.10733220%2C101.44469690&navigate=yes&utm_campaign=default&utm_source=waze_website&utm_medium=lm_share_location,"Monday - Sunday, 10:00 AM - 10:00 PM"
15,Subway Aeon Big Subang,"F1-23 AEON BIG, Level 1 No.3 Jalan SS 16/1,Subang Jaya, Selangor 47500 ",3.08258,101.588016,"https://www.waze.com/en/live-map/directions/subway-aeon-big-f1-23-aeon-big,-level-1-no.3-subang-jaya?place=w.66584607.665780532.27413993","Monday - Sunday, 9:00 AM - 10:00 PM"
16,Subway University Malaya,"Faculty of Dentistry, Level 1, Block B, University of Malaya, Kuala Lumpur, 50603",3.121723,101.653684,https://www.waze.com/en/live-map/directions/subway-university-of-malaya-university-of-malaya-faculty-of-dentistry-petaling-jaya?place=w.66650143.666173751.27402188,"Monday - Friday, 6:30 AM – 10:00PM; Saturday & Sunday, 8:00 AM – 3:00PM"
17,Subway Jade Hills,"No 40-G, Jalan Jade Hills Utama 1/2, Commerce Village, Jade Hills, 43000 Kajang, Selangor. ",2.994114,101.758669,https://www.waze.com/en/live-map/directions/my/selangor/kajang/subway-jade-hill?place=ChIJuRzJknvLzTERiX5pZXHT0gw,
18,Subway Wangsa Walk,"Wangsa Ave, Bandar Wangsa Maju, #9 Jalan Perdana 1, G-52, Wangsa Walk Mall, Kuala Lumpur, 53300",3.198582,101.742206,"https://www.waze.com/en/live-map/directions/subway-wangsa-walk-mall-g-52,-wangsa-walk-mall-kuala-lumpur?place=w.66650144.666763584.27401138","Monday - Sunday, 9:30 AM - 9:30 PM"
19,Subway TTDI,"Lvl1, Petronas Svs Station TTDI,Lot29395 & 29396, Pinggir Zaaba, Taman Tun Dr Ismail, Kuala Lumpur, 60000",3.141958,101.625217,https://www.waze.com/en/live-map/directions/my/wilayah-persekutuan-kuala-lumpur/kuala-lumpur/subway-@-pinggir-zaaba-taman-tun?place=ChIJuRYqITBJzDER76oB2espXlU,"Monday - Sunday, 8:30 AM - 9:00 PM"
20,Subway Plaza Shah Alam,"Lot No. G 17, Ground Floor, Plaza Shah Alam, Sekysen 9, Shah Alam, 40100",3.084338,101.523317,"https://www.waze.com/en/live-map/directions/subway-@plaza-shah-alam-lot-g17,-plaza-shah-alam?place=w.66519071.665321780.27398400","Monday - Sunday, 9:30 AM – 09:30PM"
21,Subway Taipan,"7A, Jalan USJ 10/1j, Taipan Business Centre, 47620 Subang Jaya, Selangor",3.047932,101.586015,https://www.waze.com/en/live-map/directions/subway-taipan-jalan-usj-101j-7-subang-jaya?place=w.66584606.665780529.2845552,"Monday - Sunday, 8:00 AM - 8:00 PM"
22,Subway Menara Aras Jaya,"LG Floor, Menara Bumiputra Commerce, No 11, Jalan Raja Laut, 50350 Kuala Lumpur",3.155606,101.695688,"https://www.waze.com/en/live-map/directions/subway-cimb-cimb-11-jalan-raja-laut,-lower-ground-floor-kuala-lumpur?place=w.66650144.666501436.27395039","Monday - Friday, 8:00 AM – 9:00PM; Saturday & Sunday, 10:00 AM – 7:00PM"
23,Subway Petronas Ampang Point,"Petronas Gas Station/C-Store, Lot 36904 TT27423, Jalan Air Kolam Lama, Ampang, 68000",3.160388,101.75601,"https://waze.com/ul?ll=3.160388,101.756010","Monday - Sunday, 8:30 AM - 9:00 PM"
24,Subway Tesco Kepong,"Tesco Kepong Village Mall, Lot No. 14, 1st Floor, No. 3 Jalan 7A/62A Bandar Manjalara, Kuala Lumpur, 52200",3.194423,101.633699,"https://www.waze.com/en/live-map/directions/subway-lotuss-kepong-village-lot-no.-14,-1st-floor,-lotuss-kepong-village-mall-kuala-lumpur?place=w.66584608.666042687.27399057","Monday - Sunday, 10:15 AM - 9:30 PM"
25,Subway Jalan Ipoh,"No. 447, Jalan Ipoh, Batu 3, Taman Million, 51200 Kuala Lumpur",3.178158,101.685121,"https://www.waze.com/en/live-map/directions/subway-rivercity-village-468-1(1),-ground-floor,-block-f-rivercity-village-kuala-lumpur?place=w.66650144.666370366.16193787","Monday - Sunday, 8:00 AM - 10:00 PM"
26,Subway SS7,"#15G Jalan Plumbum R7/R, Pusat Komersial Seksyen 7, Shah Alam, 40000",3.067989,101.489526,https://www.waze.com/en/live-map/directions/my/selangor/shah-alam/subway?place=ChIJK0pwYPpSzDERPDlCo9f-iqY,"Monday - Sunday, 8:00 AM - 9:30 PM"
27,Subway Selayang Mall,"Selayang Mall, GSW .5A, Ground Floor, Batu Caves, 68100",3.237131,101.643784,"https://www.waze.com/en/live-map/directions/subway-selayang-mall-5a,-ground-floor,-selayang-mall-batu-caves?place=w.66584608.666108228.27398140","Monday - Sunday, 9:00 AM - 10:00 PM"
28,Subway Aeon Bukit Tinggi,"AEON Bukit Tinggi Shopping Ctr, No 1 Persiaran Batu Nilam, 1/KS6 Bandar Bukit Tinggi 2, Klang, 41050",2.99451,101.444207,https://www.waze.com/en/live-map/directions/subway-aeon-bukit-tinggi-lot-s31-2nd-floor-aeon-bukit-tinggi-klang?place=w.66453534.664863019.27399113,"Sunday - Thursday, 10:00 AM – 10:00PM; Friday & Saturday, 8:00 AM – 10:30PM"
29,Subway AEON BIG Puchong,"AEON BIG Shopping Center, Lot No G04 Ground Floor, Lot 4029 Persiaran Selangor, Puchong Utama, 47100",2.991741,101.615601,https://ul.waze.com/ul?preview_venue_id=66584606.665911595.26934483&navigate=yes&utm_campaign=default&utm_source=waze_website&utm_medium=lm_share_location,"Monday - Sunday, 10:00 AM - 10:00 PM"
30,Subway Seksyen 13,"Tadisma Business Park, Seksyen 13, 40100 Shah Alam, Selangor",3.089032,101.546357,"https://waze.com/ul?ll=3.089032,101.546357",Monday - Sunday (9:30AM - 10:30PM)
31,Subway Axis Atrium,"Axis Atrium, Lot No. G-3 Ground Floor, Jalan Cempaka, Taman Cempaka Ampang, 68000",3.136505,101.747491,"https://www.waze.com/en/live-map/directions/subway-axis-atrium-axis-atrium,-lot-no.-g-3-ground-floor-kuala-lumpur?place=w.66650143.666829114.27401140","Monday - Sunday, 8:00 AM - 9:00 PM"
32,Subway Taman Prima Saujana,"G-2A-GB, Jalan Prima Saujana 2/D, Taman Prima Saujana, 43000 Kajang, Selangor ",3.008788,101.804503,https://www.waze.com/en/live-map/directions/my/selangor/kajang/subway-prima-saujana?place=ChIJ5T1_lhrNzTERznG7echZSEc,"Monday - Sunday, 8:00 AM - 10:00 PM"
33,Subway Aeon Rawang ,"Komplex Beli Belah Aeon Anggun, Rawang, G61, No. 1 Persiaran, Anggun, Taman Anggun, Rawang, 48000",3.316665,101.536474,"https://www.waze.com/en/live-map/directions/subway-aeon-rawang-komplex-beli-belah-aeon-anggun,-rawang,-g61?place=w.66519073.665452876.27402346","Monday - Sunday, 10:00 AM - 10:00 PM"
34,Subway Kota Kemuning,"2.27.1 (Ground), 14, Persiaran Anggerik Vanilla, Kota Kemuning Seksyen 31, Shah Alam, 40460",3.003765,101.538959,https://www.waze.com/en/live-map/directions/subway-kota-kemuning-persiaran-anggerik-vanilla-shah-alam?place=w.66519070.665387308.7451937,"Monday - Sunday, 8:00 AM - 10:00 PM"
35,Subway Cova Square,"G16, Cova Square Jalan Teknologi Pju5 Kota Damansara 47810 Petaling Jaya Selangor",3.147444,101.575434,https://www.waze.com/en/live-map/directions/subway-cova-square-jalan-teknologi-16-petaling-jaya?place=w.66584607.665649467.17215766,"Monday - Sunday, 8:00 AM - 9:00 PM"
36,Subway Giant Bandar Kinrara  - Puchong,"Giant Hypermkt Bandar Kinrara, Lot No:G8, Lot 449, Jalan BK 5A/1, Bandar Kinrara, Puchong, 47100",3.050157,101.646321,https://www.waze.com/en/live-map/directions/my/selangor/puchong/subway-@-giant-hypermarket-bandar-kinrara?place=ChIJQWetUDxLzDERNXcKhA-KR-A,"Monday - Sunday, 9:30 AM - 10:00 PM"
37,Subway One City,"One City@Skypark, C-GF-01 Ground Floor, Jalan USJ 25/1, Subang Jaya, 47650",3.021501,101.581089,https://www.waze.com/en/live-map/directions/my/selangor/subang-jaya/subway?place=ChIJSx9gBCWzzTER0Qhz_gj_2QQ,"Monday - Sunday, 9:00 AM - 7:45 PM"
38,Subway Eco Ardence,"L15-G-INT, L15-G-EXT, Ardence Lab, PT8 Persiaran Setia, 40170 Shah Alam, Selangor",3.095179,101.481037,"https://waze.com/ul?ll=3.095179,101.481037","Monday - Sunday, 10:30 AM - 8:00 PM"
39,Subway Southgate,"Pusat Komersial Southgate, No. 2, Jalan Dua, Unit E-1-6, Off Jalan Chan Sow Lin, Lvl 1, Kuala Lumpur, 55200",3.124517,101.710679,https://www.waze.com/en/live-map/directions/my/wilayah-persekutuan-kuala-lumpur/kuala-lumpur/subway-@-southgate-commercial-center?place=ChIJd4K2SBw2zDERvbRfvxkCiEw,"Monday - Sunday, 8:00 AM - 9:00 PM"
40,Subway Brem Mall,"G-06, Brem Mall, Jalan Kepong, Kepong, Kuala Lumpur, 52000",3.204461,101.6676,"https://www.waze.com/en/live-map/directions/subway-brem-mall-g-06,-brem-mall,-jalan-kepong,-kepong-kuala-lumpur?place=w.66650144.666304832.27401872","Monday - Sunday, 8:00 AM - 10:00 PM"
41,Subway Festival City ,"Setapak Central Mall, Lot S-23, No. 67 Jalan Taman Ibu Kota, Taman Danau Kota, Setapak, Kuala Lumpur, 53200",3.204575,101.72053,https://www.waze.com/en/live-map/directions/my/federal-territory-of-kuala-lumpur/kuala-lumpur/subway-@-setapak-central-mall?place=ChIJ6fjTnRE4zDEReW77Yg4uqrY,"Monday - Sunday, 10:00 AM - 10:00 PM"
42,Subway Citta Mall,"Lot F-09, 1st Floor, Citta Mall, No.1 Jln PJU 1A/48, PJU 1A, Ara Damansara, Petaling Jaya, 47301",3.112187,101.579071,"https://www.waze.com/en/live-map/directions/subway-citta-mall-unit-f-09,-citta-mall,-ara-damansara,-ara-damansara-petaling-jaya?place=w.66584607.665714999.27401586","Monday - Sunday, 9:30 AM - 8:00 PM"
43,Subway Aeon Big Wangsamaju,"Aeon Big Wangsa Maju, F1-09, First Floor, Jalan 8/27A, Section 5, Wangsa Maju, 53300 Kuala Lumpur.",3.196496,101.743179,"https://www.waze.com/en/live-map/directions/subway-aeon-big-wangsa-maju-f1-09,-first-floor,-aeon-big-wangsa-maju,-wangsa-maju-kuala-lumpur?place=w.66650144.666763584.27401144","Monday - Sunday, 10:00 AM - 10:00 PM"
44,Subway Shell Federal 4,"PT 5, CH 3100, KM 9, Federal Highway 2, Seksyen 1, 40450 Shah Alam, Selangor",3.048916,101.452038,https://www.waze.com/en/live-map/directions/my/selangor/shah-alam/subway-@-shell-federal-highway?place=ChIJObPX3B1TzDERb0x5DR3uBrs,"Monday - Sunday, 8:00 AM - 8:00 PM"
45,Subway Endah Parade,"Endah Parade Shopping Complex, Lot G-013A, Ground Floor, Jalan 1/149E, Kuala Lumpur, 57000",3.063303,101.695198,"https://www.waze.com/en/live-map/directions/subway-endah-parade-endah-parade-shopping-complex,-kuala-lumpur?place=w.66650143.666501426.27401582","Monday - Sunday, 8:00 AM - 10:00 PM"
46,Subway NKVE,"Lot 15385KM 15.3, (NKVE), Petronas New Klang Expressway, Damansara Bound, Sungai Buloh, 47000",3.09422,101.541431,https://www.waze.com/en/live-map/directions/my/selangor/sungai-buloh/subway?place=ChIJ4VodophOzDERaGq4H8ZxsAw,"Monday - Sunday, 10:00 AM - 9:00 PM"
47,Subway BBT,"57-0, Jalan Batu Nilam 4, Bandar Bukit tinggi, 41200 Klang, Selangor",3.007776,101.436773,https://www.waze.com/en/live-map/directions/my/selangor/klang/subway?place=ChIJ28RwBzatzTERrP34BXMEGdQ,Monday - Sunday (8:00AM - 8:00PM)
48,Subway Star Avenue,"Star Avenue Lifestyle Mall,  Lot No: L1-13 & L1-K2, No. 3, Jalan Zuhal U5/179, Pusat Komersial Arena Bintang,Seksyen U5, Shah Alam, 40150 ",3.154583,101.553631,"https://waze.com/ul?ll=3.154583,101.553631","Monday - Sunday, 10:00 AM - 10:00 PM"
49,Subway Metro Point,"Metro Point Complex, Lot G03 Ground Floor, Jalan Jelok 8, Kajang, 43000",2.991637,101.793722,"https://www.waze.com/en/live-map/directions/subway-metro-point-complex-metro-point-complex,-lot-g03-ground-floor-kajang?place=w.66715678.667091243.27400766","Monday - Sunday, 9:30 AM - 9:30 PM"
50,Subway Forum,"Sunsuria Forum@7th Avenue, Block E, No.E-15,  Seksyen U13, Jalan Setia Dagang AL U13/AL, Setia Alam, 40170 Shah Alam, Selangor",3.105348,101.467121,https://www.waze.com/en/live-map/directions/my/selangor/shah-alam/subway-@-sunsuria-forum?place=ChIJZQyKadRTzDER3jUOZ5LYp3o,"Monday - Sunday, 8:30 AM - 9:00 PM"
51,Subway Mydin USJ,"G-42 & G-43, Ground Floor,Persiaran Subang Permai, USJ 1, 47500 Subang Jaya, Selangor.",3.057877,101.592775,https://www.waze.com/en/live-map/directions/my/selangor/pj/subway-(mydin-subang-jaya-hypermarket)?place=ChIJA4PoRR5NzDERe-Q_fZOYgKM,"Monday - Sunday, 10:00 AM - 10:00 PM"
52,Subway Shaftsbury Square,"Shaftsbury Square, P2-08&09, 2350 Persiaran Multimedia, Cyber 6, Cyberjaya, 63000",2.923232,101.660782,"https://www.waze.com/en/live-map/directions/subway-shaftsbury-square-p2-08and09,-shaftsbury-square-cyberjaya?place=w.66650141.666239268.27442124","Monday - Saturday, 8:00 AM – 10:00PM; Sunday, 11:00 AM – 8:00PM"
53,Subway TBS,"Unit L4-29, 4th Floor, Terminal Bersepadu Selatan, Bandar Tasik Selatan, Kuala Lumpur, 57100",3.078001,101.710922,https://www.waze.com/en/live-map/directions/my/federal-territory-of-kuala-lumpur/kuala-lumpur/subway-@-tbs?place=ChIJAVz8DF81zDERXWs-EKFOIF8,"Monday - Sunday, 10:00 AM – 8:00PM; Friday, 9:00 AM – 9:00PM"
54,Subway KWC (Kenanga),"KWC Fashion Mall, No.2, Jalan Gelugor, Lot G-08, Kuala Lumpur, 55200",3.136102,101.708431,https://www.waze.com/en/live-map/directions/subway-kwc-fashion-mall-lot-g-08-kwc-fashion-mall-kuala-lumpur?place=w.66650143.666566970.27400904,"Monday - Sunday, 10:00 AM - 8:00 PM"
55,Subway Selayang 18,"Lot 3.06, 3rd Floor vendor letter SH-15-G,Grd Floor,Selayang, Kuala Lumpur, 68000 , Batu Caves, 68100",3.255174,101.654411,https://www.waze.com/en/live-map/directions/subway-selayang-18-persiaran-3-batu-caves?place=w.66650145.666173766.21949236,"Monday - Sunday, 8:00 AM - 9:00 PM"
56,Subway Shell Bandar Puteri Klang,"Shell Gas Station/C-Store, Shell Bandar Puteri, PT80564,Lorong Pending 4/KS 07, Bandar Puteri, Klang, 41200",2.99444,101.468173,https://www.waze.com/en/live-map/directions/my/selangor/port-klang/subway?place=ChIJEe8HgleszTER-9y75ybHXkk,"Monday - Sunday, 8:30 AM - 9:00 PM"
57,Subway Sime Darby Parkcity,"Sime Darby Parkcity, CP Retail 2, No. 2 Jalan Intisari, Perdana Desa Parkcity, Kuala Lumpur, 52200",3.189334,101.638541,"https://www.waze.com/en/live-map/directions/subway-desa-park-city-sime-darby-parkcity,-cp-retail-2-kuala-lumpur?place=w.66584608.666108223.14350474","Monday - Sunday, 8:00 AM - 9:30 PM"
58,Subway TM,"Lower Ground 1 (LG1), Menara TM, Jalan Pantai Baharu, 50672 Kuala Lumpur",3.116129,101.665866,https://www.waze.com/en/live-map/directions/my/federal-territory-of-kuala-lumpur/kuala-lumpur/subway-@-menara-tm?place=ChIJ97qHTY1JzDEREeRr6wtfSts,"Monday, 10:00 AM – 8:00PM; Tuesday - Thursday, 8:00 AM – 8:00PM; Friday, 8:20 AM – 8:00PM; Saturday, 9:00 AM – 9:00PM; Sunday, Closed"
59,Subway Giant Putra Height,"Giant Hypermarket, Putra Height, No. 3 Persiaran Putra Perdana, Putra Heights, 47650",2.989671,101.572335,https://www.waze.com/en/live-map/directions/my/selangor/subang-jaya/subway?place=ChIJCZBD7qyzzTEROaAJHKYSQg4,"Monday, 10:00 AM – 10:30PM; Tuesday & Sunday, 10:00 AM – 9:30PM"
60,Subway Semenyih,"19-G, Ground Floor, Jalan TPS 1/3, Taman Pelangi, 43500 Semenyih, Selangor",2.931837,101.855625,"https://www.waze.com/en/live-map/directions/subway-taman-pelangi-semenyih-19-g,-ground-floor,-jalan-tps-13,-taman-pelangi?place=w.66781213.667549989.27401584","Monday - Sunday, 8:00 AM - 10:00 PM"
61,Subway Petronas Bangi,"Petronas Bandar Baru Bangi, Plot A, Seksyen 15, Bandar Baru Bangi, Kajang, 43000",2.934294,101.768335,https://www.waze.com/en/live-map/directions/my/selangor/bandar-baru-bangi/subway?place=ChIJYwbWSBPJzTERPYXyVSbVC6A,"Monday - Sunday, 8:00 AM - 10:00 PM"
62,Subway Petronas Cyberjaya,"Petronas Cyberjaya, Lot PT 29771, Persiaran APEC, Cyber 3, Mukim Dengkil, Sepang, 63000",2.935971,101.661231,https://www.waze.com/en/live-map/directions/my/selangor/cyberjaya/subway?place=ChIJHbnQA2C2zTERGzNFklGlMLM,"Monday - Sunday, 9:30 AM - 8:00 PM"
63,Subway GPS,"Petronas Green Plus Station, Plus Hwy & Sungai Besi Hwy, Lot 896, Ground Floor, QSR 3, Mukim Kajang, Hulu Langat, 43300",3.00588,101.725544,"https://waze.com/ul?ll=3.005880,101.725544","Monday - Sunday, 8:00 AM - 11:00 PM"
64,Subway Sunway Lagoon,"Sunway Lagoon Theme Park, FB-Z-001, 3, Jalan PJS 11/11, Bandar Sunway, Petaling Jaya, 46150",3.071533,101.605323,"https://www.waze.com/en/live-map/directions/subway-sunway-lagoon-sunway-lagoon-theme-park,-fb-z-001,-3-petaling-jaya?place=w.66584607.665911603.27401305",Monday - Sunday (10:00AM - 6:00PM)Tuesday : Close
65,Subway Sri Gombak,"No. G100, Jalan Prima SG3/2, Taman Prima, Sri Gombak, Kuala Lumpur, 68100",3.237666,101.700343,https://www.waze.com/en/live-map/directions/my/selangor/batu-caves/subway?place=ChIJi5BmZXtHzDER519jKGFtoFk,"Monday - Sunday, 8:00 AM - 10:30 PM"
66,"Subway Trillium, Lake Fields","No.66, Jalan Tasik Utama 7, Medan Niaga Tasik Damai, (Trillium) Lake Field, Sg Besi, Kuala Lumpur, 57000",3.05989,101.710432,"https://waze.com/ul?ll=3.059890,101.710432","Monday - Sunday, 8:30 AM - 10:00 PM"
67,Subway Ikon Connaught,"Ikon Connaught, G-02A & Alfresco GA-02A, Ground Floor, Jalan Cerdas, Taman Connaught, Kuala Lumpur, 56100",3.081465,101.731419,https://www.waze.com/en/live-map/directions/subway-ikon-connaught-lot-g-02a-ikon-connaught-kuala-lumpur?place=w.66650143.666698036.27398136,"Monday - Sunday, 10:00 AM - 8:00 PM"
68,Subway Atria,"Atria Shopping Gallery, Lot C11, Jalan SS 22/23, Damansara Jaya, Petaling Jaya, 47400",3.127096,101.616518,https://www.waze.com/en/live-map/directions/subway-atria-shoppinggallery-lot-c11-atria-shopping-gallery-petaling-jaya?place=w.66584607.665977145.27398112,"Monday - Sunday, 10:00 AM - 10:00 PM"
69,Subway SS3,"Jalan SS3/39, Ground Floor, Unit 16, Bangunan PJ21, Petaling Jaya, 47300",3.090677,101.614668,https://www.waze.com/en/live-map/directions/my/selangor/pj/subway-ss3?place=ChIJuTzSm3VMzDERLk_bVVw9iTg,"Monday - Saturday, 8:00 AM – 10:00PM; Sunday, 8:00 AM – 9:00PM"
70,Subway Ativo Plaza,"Ativo Plaza, #1 Jalan PJU 9/1, Damansara Ave, B-G-2, Block B, Bandar Sri Damansara, Kuala Lumpur, 52200",3.196263,101.616271,https://www.waze.com/en/live-map/directions/subway-ativo-plaza-jalan-pju-91-kuala-lumpur?place=w.66584608.665977152.5632979,"Monday - Saturday, 8:30 AM – 10:00PM; Sunday, 8:30 AM – 9:30PM"
71,Subway Quill City (LG),"Quill City Mall, LG-02, No. 1018, Jalan Sultan Ismail, Kuala Lumpur , 50250",3.159488,101.70017,https://www.waze.com/en/live-map/directions/my/federal-territory-of-kuala-lumpur/kuala-lumpur/subway-@-quill-city-mall?place=ChIJl7-7OS9IzDERa282ngJCTKs,"Monday - Sunday, 10:00 AM - 10:00 PM"
72,Subway Centro Mall,"Centro Mall, G13, No. 8, Jalan Batu Tiga Lama, Kawasan 16, Klang, 41300",3.05287,101.462789,"https://www.waze.com/en/live-map/directions/subway-centro-mall-g13,-centro-mall,-kawasan-16-klang?place=w.66519071.664928561.27448753","Monday - Sunday, 8:30 AM - 10:00 PM"
73,Subway Sunway U,"No. 27 Jalan PJS 11/9, Bandar Sunway, Petaling Jaya, 46150",3.067818,101.603107,"https://www.waze.com/en/live-map/directions/subway-sunway-university-no.-27-jalan-pjs-119,-bandar-sunway,-46150-subang-jaya?place=w.66584607.665846067.26717443","Monday - Sunday, 9:00 AM - 8:00 PM"
74,Subway KLIA2 (A),"Gateway@ KLIA2, L2-119, Terminal KLIA2,KL Intl Airport, Jalan KLIA 2/1, Sepang, 64000",2.744089,101.685639,https://www.waze.com/en/live-map/directions/my/selangor/sepang/subway?place=ChIJAwOXw5W_zTERFhH03LyApWk,"Monday - Sunday, 9:00 AM - 8:00 PM"
75,Subway Kota Damansara,"15-1, Jalan PJU 5/6, Dataran Sunway, Kota Damansara, Petaling Jaya, 47810",3.153206,101.594907,https://www.waze.com/en/live-map/directions/my/selangor/pj/subway-@-dataran-sunway?place=ChIJjaT4bSBPzDERdko25w89Fq8,"Monday - Sunday, 8:00 AM - 8:00 PM"
76,Subway I-City,"i-City, City Park A-5-G, Jalan Multimedia 7/A, Shah Alam, 40000",3.065016,101.482803,https://www.waze.com/en/live-map/directions/subway-i-city-shah-alam-jalan-multimedia-7ah-a-5-g?place=w.66519071.665059634.12736414 ,"Monday - Friday, 10:30 AM – 10:30PM; Saturday & Sunday, 11:00 AM – 10:30PM"
77,Subway OUG,"A1-07 Jalan 1/52, Taman OUG Parklane Off Jalan Klang Lama 58200 Kuala Lumpur ",3.074779,101.661593,https://www.waze.com/en/live-map/directions/my/wilayah-persekutuan-kuala-lumpur/kuala-lumpur/subway-oug-parklane?place=ChIJW9BS3nlLzDERdemjQm9QkBE,"Monday - Sunday, 9:00 AM - 10:00 PM"
78,Subway Aeon Bukit Raja,"Aeon Bukit Raja Shopping Ctr, C9, Persiaran Bukit Raja 2, Bandar Baru Klang, Klang, 41150",3.060881,101.472268,"https://www.waze.com/en/live-map/directions/subway-aeon-bukit-raja-c9,-aeon-bukit-raja-shopping-centre-klang?place=w.66519071.664994098.27397018","Monday - Sunday, 10:00 AM - 10:00 PM"
79,Subway Petronas Kesas,"Petronas Station, Lebuhraya Kesas Arah Barat KM34.5, Lebuhraya Kesas, 40000 Shah Alam, Selangor",3.050101,101.56337,https://www.waze.com/en/live-map/directions/my/selangor/subang-jaya/subway-petronas-kesas-highway-arah-barat-km34.-5?place=ChIJ9bLY5B5NzDERCu0iuXkBptY,"Monday - Saturday, 7:30 AM – 10:00PM; Sunday, 8:00 AM – 10:00PM"
80,Subway Sri Petaling,"No. 53, Jalan Radin Bagus, 57000 Sri Petaling, Kuala Lumpur",3.070392,101.695026,https://www.waze.com/en/live-map/directions/subway-sri-petaling-jalan-radin-bagus-53-kuala-lumpur?place=w.66650143.666435891.12280737,"Monday - Sunday, 8:00 AM - 10:00 PM"
81,Subway Puncak Jalil," 116 Jalan PUJ 3/2,Taman Puncak Jalil, Bandar Putra Permai,Seri Kembangan, 63300",3.020222,101.67502,https://www.waze.com/en/live-map/directions/my/selangor/seri-kembangan/subway?place=ChIJzXasDDu1zTERjmQ2GXJQHxk,"Monday - Sunday, 9:00 AM - 10:00 PM"
82,Subway Aeon Alpha Angle,"AEON Alpha Angle Shopping Ctr, Lot F37A, Jalan R1, Seksyen 1, Bandar Baru Wangsa Maju, Kuala Lumpur, 53300",3.201844,101.731845,https://www.waze.com/en/live-map/directions/my/federal-territory-of-kuala-lumpur/kuala-lumpur/subway-@-aeon-alpha-angle?place=ChIJKfuHkjw4zDERcBLnlBYSXNw,"Monday - Sunday, 10:00 AM - 10:00 PM"
83,Subway My Town,"Lot B1-07 & B1-08, Level Basement 1, MyTOWN Shopping Centre, Jalan Cochrane, Seksyen 90, Kuala Lumpur, 55100",3.134863,101.722843,"https://www.waze.com/en/live-map/directions/subway-mytown-shopping-centre-b1-07-and-b1-08,-mytown-shopping-centre,-55100-kuala-lumpur?place=w.66650143.666632505.27397019","Monday - Sunday, 10:00 AM - 10:00 PM"
84,Subway D Pulze,"LG-03a, Lower Ground Floor, Dpulze Shopping Centre, Lingkaran Cyber Point Timur, Cyber 12, 63000 Cyberjaya, Selangor Darul Ehsan",2.922055,101.650968,"https://www.waze.com/en/live-map/directions/subway-dpulze-shopping-centre-lg-03a,-lower-ground-floor,-dpulze-shopping-centre-cyberjaya?place=w.66650141.666173732.27398117","Monday - Sunday, 10:00 AM - 8:00 PM"
85,Subway Utropolis,"G-B2a, Utropolis Marketplace, Jalan Kontracktor U1/14, Seksyen U1, 40150 Shah Alam, Selangor",3.090114,101.559864,"https://www.waze.com/en/live-map/directions/subway-utropolis-marketplace-g-b2a,-utropolis-marketplace-shah-alam?place=w.66584607.665583925.27402093","Monday - Sunday, 8:30 AM - 9:00 PM"
86,Subway Great Eastern Mall,"Great Eastern Mall, Lot 4C Lower Ground Floor, No 303 Jalan Ampang, Kuala Lumpur, 50450",3.160073,101.736901,"https://www.waze.com/en/live-map/directions/subway-great-eastern-mall-great-eastern-mall,-lot-4c-lower-ground-floor-kuala-lumpur?place=w.66650144.666763580.27398397","Monday - Friday, 8:30 AM – 8:30PM; Saturday & Sunday, 9:30 AM – 8:30PM"
87,Subway NU Sentral,"L4.13, Level Four, NU Sentral, No. 201 Jalan Tun Sambanthan, Kuala Lumpur, 50470",3.133075,101.687034,"https://www.waze.com/en/live-map/directions/subway-nu-sentral-l4.13,-level-four,-nu-sentral-kuala-lumpur?place=w.66650143.666435897.27398085","Monday - Sunday, 9:00 AM - 9:00 PM"
88,Subway East Coast Mall,"GF08C, Jln Putra Square 6,East Coast Mall, 25200,Kuantan, Pahang",3.818357,103.326243,"https://www.waze.com/en/live-map/directions/subway-east-coast-mall-gf-08c,-east-coast-mall-kuantan?place=w.67698726.677183870.27398470","Monday - Sunday, 10:00 AM - 10:00 PM"
89,Subway IOI City Mall,"IOI City Mall, Lebuh IRC, IOI Resort City, 62502 Putrajaya, Malaysia",2.970663,101.713668,"https://www.waze.com/en/live-map/directions/subway-ioi-city-mall-ioi-city-mall,-lebuh-irc,-ioi-resort-city,-62502-putrajaya?place=w.66650142.666566953.27400823","Monday - Sunday, 10:00 AM - 9:00 PM"
90,Subway Sunway Putra,"Lot 4-60 & 4-79A, Fourth Floor, Sunway Putra Mall, No. 100, Jalan Putra, 50350 Kuala Lumpur",3.166426,101.692419,https://www.waze.com/en/live-map/directions/my/federal-territory-of-kuala-lumpur/kuala-lumpur/subway-@-sunway-putra-mall?place=ChIJZ9G0hjxIzDERadDFIQqD8Ck,"Monday - Sunday, 10:00 AM - 10:00 PM"
91,Subway Teluk Chempedak,"No. 69, Shoplex TreeUnder Teluk Chempedak Beach, 25050 Kuantan Pahang",3.812313,103.371154,https://www.waze.com/en/live-map/directions/my/pahang/kuantan/subway?place=ChIJQ3rva0WlyDERMBzaxal0eR4,"Monday - Sunday, 8:00 AM - 10:00 PM"
92,Subway Sunway Pinnacle,"M-01, Mezzanine Floor, The Pinnacle, Persiaran Lagoon, Bandar Sunway, 46150 Petaling Jaya, Selangor",3.070182,101.610049,https://www.waze.com/en/live-map/directions/my/selangor/pj/subway@sunway-pinnacle?place=ChIJQ3L-SYFMzDER_wOO4aHBkQs,"Monday - Friday, 8:00 AM – 8:00PM; Saturday, 9:00 AM – 6:00PM; Sunday, Closed"
93,Subway Melawati Mall,"L3-22, Third Floor, Melawati Mall, UP2-01, Melawati Mall, 355, Jalan Bandar Melawati, Pusat Bandar Melawati, 53100 Kuala Lumpur",3.211379,101.748677,"https://www.waze.com/en/live-map/directions/subway-melawati-mall-lot-l3-22-melawati-mall,-ampang-kuala-lumpur?place=w.66650144.666829121.27398467","Monday - Sunday, 10:00 AM - 10:00 PM"
94,Subway Sunway Medical,"Sunway Medical Centre, Ground Floor,No. 5, Jalan Lagoon Selatan, 47500 Selangor",3.066085,101.608626,"https://waze.com/ul?ll=3.066085,101.608626","Monday - Sunday, 8:00 AM - 8:00 PM"
95,Subway Taman Melati,"No. 71-G Jalan Melati Utama 4, Taman Melati Utama, 53100 Setapak, Kuala Lumpur",3.222755,101.731182,https://www.waze.com/en/live-map/directions/my/federal-territory-of-kuala-lumpur/kuala-lumpur/subway-taman-melati?place=ChIJO6zeoZQ5zDERd8uBXlgh8CE,"Monday - Sunday, 7:30 AM - 10:00 PM"
96,Subway Shell Melati,"PT 5729, Batu 6 1/2, Ulu Gombak, 68100 Gombak. Selangor",3.235291,101.723508,"https://www.waze.com/en/live-map/directions/subway-shell-melati-jalan-lingkaran-tengah-2,-pt5729,-shell-melati-kuala-lumpur?place=w.66650144.666632516.27398141","Monday - Sunday, 8:30 AM - 6:00 PM"
97,Subway Shell Karak,"PT 5946, Lebuhraya Karak, 68100 Gombak, Selangor",3.241128,101.716156,"https://www.waze.com/en/live-map/directions/subway-lebuhraya-karak-pt-5946,-lebuhraya-karak,-68100-gombak,-selangor-kuala-lumpur?place=w.66650144.666632516.27398042","Monday - Sunday, 8:30 AM - 10:30 PM"
98,Subway Bukit Jalil,"Level 1 Axiata Arena, KL Sport City, Bukit Jalil, 57000, Kuala Lumpur",3.053815,101.693434,https://www.waze.com/en/live-map/directions/my/wilayah-persekutuan-kuala-lumpur/kuala-lumpur/subway-axiata-arena-bukit-jalil?place=ChIJ_1r32pdKzDERwqb1Q3n6L9o,"Monday - Sunday, 9:00 AM - 10:00 PM"
99,Subway Sentul Sky Awani,"Ground Floor , Unit No. G-11, Residensi Awani, Sky Awani, No. 27 Jalan Sentul Perdana 51100, Kuala Lumpur",3.209174,101.691372,https://www.waze.com/en/live-map/directions/subway-sky-awani-jalan-sentul-perdana-g-11-kuala-lumpur?place=w.66650144.666435905.27398084,"Monday - Sunday, 8:00 AM - 10:00 PM"
100,Subway Evo Mall,"G.07, Seksyen 9, Bandar Baru Bangi, 43650 Selangor",2.962721,101.753783,"https://waze.com/ul?ll=2.962721,101.753783","Monday - Sunday, 10:00 AM - 10:00 PM"
101,Subway Damansara Perdana,"D-S-G-01, Metropolitan Square, Jalan PJU 8/1, Damansara Perdana, Petaling Jaya, 47820, Selangor",3.166098,101.607914,https://www.waze.com/en/live-map/directions/my/selangor/pj/subway-@-damansara-perdana-or-metropolitan-sq?place=ChIJWz04PAdPzDERiU-tHTIPyiY,"Monday - Friday, 8:00 AM – 10:00PM; Saturday & Sunday, 8:00 AM – 9:30PM"
102,Subway Pearl Point,"Lot No. 1.0.69 (Ground Floor), Pearl Point Shopping Mall, Batu 5, Jalan Klang Lama, 58000 Kuala Lumpur",3.083153,101.669445,"https://waze.com/ul?ll=3.083153,101.669445",Monday - Sunday (9:00AM - 10:00PM)
103,Subway Gurney Mall (UTMKL),"Lot 1-03, Level 1, Residensi UTMKL, No 8 Jalan Maktab, 54000 Kuala Lumpur",3.171561,101.721805,https://www.waze.com/en/live-map/directions/my/wilayah-persekutuan-kuala-lumpur/kuala-lumpur/subway-utmkl?place=ChIJ7_y8Q5A3zDER6JGmn1Nfmqc,"Tuesday – Sunday, 10:00 AM – 9:30PM; Monday, 8:00 AM – 9:30PM"
104,Subway KLTS,"45-G, Plaza KLTS, Block C, Jalan Gombak, 53000 Kuala Lumpur ",3.204075,101.70348,https://www.waze.com/en/live-map/directions/my/federal-territory-of-kuala-lumpur/kuala-lumpur/subway-klts?place=ChIJKd965yNHzDERs76aJJNwaw4,"Monday - Sunday, 9:00 AM - 9:30 PM"
105,Subway Jaya One,"100-P2.015, Level 2, Block J, The School Jaya One, No.72A Jalan Prof Diraja Ungku Aziz, 46200 Petaling Jaya, Selangor ",3.117373,101.635064,https://www.waze.com/en/live-map/directions/my/selangor/pj/subway-jaya-one?place=ChIJcQghqGVJzDERLSVTpukyla4,"Monday - Sunday, 10:30 AM - 9:00 PM"
106,Subway Petronas Grand Saga 3,"Lot 432, Lebuhraya Grand Saga, (Kajang Bound)  43300, Kajang, Selangor ",3.025706,101.771637,"https://waze.com/ul?ll=3.025706,101.771637",
107,Subway Bandar Rimbayu,"No 43, Jalan Flora 2/2, Bandar Rimbayu, 42500 Telok Panglima Garang, Selangor ",2.933245,101.547994,"https://www.waze.com/en/live-map/directions/subway-(bandar-rimbayu)-no-43,-jalan-flora-22,-bandar-rimbayu-42500-telok-panglima-garang?place=w.66519069.665518373.27402317","Monday - Sunday, 8:00 AM - 10:00 PM"
108,Subway Sungai Buloh,"2390, Jalan 1A-1, Bdr Baru Sg Buloh, Seksyen U20, 40610 Shah Alam, Selangor",3.21035,101.564883,https://www.waze.com/en/live-map/directions/my/selangor/sungai-buloh/subway?place=ChIJN48KfTJFzDERqzad5XvCtwo,"Monday - Sunday, 8:00 AM - 10:00 PM"
109,Subway Subang Parade,"LGC17, Lower Ground Floor, Subang Parade Shopping Centre, Jalan Kemajuan Subang, Ss 16, 47500 Subang Jaya, Selangor",3.081489,101.585103,https://www.waze.com/en/live-map/directions/my/selangor/subang-jaya/subway-subang-parade-mall?place=ChIJR-sOzp5NzDERyLXi0ZNbEGw,"Monday - Sunday, 9:00 AM - 10:00 PM"
110,Subway Temerloh,"No 19, Jalan Sudirman 2,Bandar Temerloh,28000 Temerloh, Pahang",3.449613,102.415563,https://www.waze.com/en/live-map/directions/subway-temerloh-jalan-sudirman-2-27?place=w.67108899.671220057.3946081,"Monday - Sunday, 9:30 AM - 10:30 PM"
111,Subway Setia City Mall,"LG-078, Lower Ground Floor, Setia City Mall, Bandar Setia Alam, 40170 Shah Alam, Selangor",3.109469,101.460218,"https://waze.com/ul?ll=3.109469,101.460218","Monday - Sunday, 10:00 AM - 10:00 PM"
112,Subway KL East Mall,"LG 37  , Lower Ground Floor, KL East Mall, 823 Jalan Lingkaran Tengah 2, KL Timur, 53100 Kuala Lumpur",3.224754,101.730533,https://www.waze.com/en/live-map/directions/my/wilayah-persekutuan-kuala-lumpur/kuala-lumpur/subway-kl-east-mall?place=ChIJ98w9Q285zDERzcGnUTqyW_U,"Sunday – Thursday, 10:00 AM – 8:00PM; Friday & Saturday, 9:00 AM – 8:00PM"
113,Subway Bandar Sri Permaisuri,"Lot R-G-07, Ground Floor Q Avenue, Kompleks Permaisuri Q, No.6,Jalan Sri Permaisuri, Bandar Sri Permaisuri, Cheras 56000 Kuala Lumpur",3.101187,101.711708,https://www.waze.com/en/live-map/directions/my/wilayah-persekutuan-kuala-lumpur/kuala-lumpur/subway-@-bandar-sri-permaisuri?place=ChIJOdM1NoI1zDERNMFVeFKzCJk,"Monday - Sunday, 10:00 AM - 9:00 PM"
114,Subway Bukit Mahkota,"No 12, Jalan Seri Putra 1/25, Bandar Seri Putra, 43000 Kajang, Selangor ",2.886468,101.791289,https://www.waze.com/en/live-map/directions/subway-bukit-mahkota-jalan-seri-putra-15-12g-kajang?place=w.66715677.667091233.25089748,"Monday - Sunday, 8:00 AM - 10:00 PM"
115,Subway Mahkota Cheras,"32G, Jalan Temenggung 1/9, Bandar Mahkota Cheras, 43200 Cheras, Selangor",3.050916,101.789313,https://www.waze.com/en/live-map/directions/my/selangor/cheras/subway-mahkota-cheras?place=ChIJMyT9PzA1zDER7wCQsKhyL2s,"Monday - Sunday, 10:00 AM - 11:00 PM"
116,Subway Eco Grandeur,"19, Ruang Niaga Eco Grandeur, Persiaran Mokhtar Dahari,42300 Bandar Puncak Alam,Selangor Darul Ehsan.",3.225739,101.456014,https://www.waze.com/en/live-map/directions/my/selangor/subway-eco-grandeur?place=ChIJYQ7BGW5bzDERBhKaTphJnX8,"Monday - Sunday, 8:00 AM - 10:00 PM"
117,Subway KLCC,"Lot F208, Second Floor, Suria KLCC, Jalan Ampang, Golden, 50088 Kuala Lumpur",3.159186,101.712392,https://www.waze.com/en/live-map/directions/my/wilayah-persekutuan-kuala-lumpur/kuala-lumpur/subway-@-suria-klcc?place=ChIJ4w-9zNY3zDER1BwAcFWcn74,"Monday - Sunday, 10:00 AM - 10:00 PM"
118,Subway Banting,"No 7G Ground Floor, Jalan Cemerlang 1A, Pusat Perdagangan Banting, 42700 Banting, Selangor",2.812757,101.508583,https://www.waze.com/en/live-map/directions/my/selangor/banting/subway-banting?place=ChIJ23CueBqlzTER22nYREN2D5Y,"Monday - Sunday, 8:00 AM - 10:00 PM"
119,Subway Bentong,"P10-G, Jalan MG1, Pusat Perniagaan Mutiara Gemilang, 28700 Bentong, Malaysia",3.538956,101.901818,https://www.waze.com/en/live-map/directions/my/pahang/bentong/subway-bentong?place=ChIJqwUOe3wFzDER1d8I-uqcZCQ,"Monday - Sunday, 8:00 AM - 10:00 PM"
120,Subway Kuala Selangor,"No G-2 (Ground Floor), Jalan Bendahara 1A, Taman Bendahara, 45000 Kuala Selangor, Selangor. ",3.322146,101.266424,https://www.waze.com/en/live-map/directions/subway-jalan-bendahara-1a-kuala-selangor?place=w.66388001.663683404.26177754,"Monday - Sunday, 8:00 AM - 10:00 PM"
121,Subway Sri Serdang,"No 11 Jalan 18/34 Taman Sri Serdang, Seri Kembangan 43300 Selangor",3.008624,101.713288,https://www.waze.com/en/live-map/directions/subway-sri-serdang-jalan-1834-11-seri-kembangan?place=w.66650142.666566957.26164017,"Monday - Sunday, 8:00 AM - 10:00 PM"
122,Subway Alam Budiman,27G Jalan Pulau Lumut P U/10 P Taman Alam Budiman 40150 Shah Alam,3.144571,101.48136,https://www.waze.com/en/live-map/directions/subway-alam-budiman-jalan-pulau-lumut-p-u10p-27-shah-alam?place=w.66519071.665059642.27218414,"Monday - Sunday, 9:30 AM - 10:00 PM"
123,Subway Kepong,"91, Jalan Metro Barat Perdana 1, Taman Usahawan Kepong, 52100 Kuala Lumpur ",3.214719,101.639538,https://www.waze.com/en/live-map/directions/my/wilayah-persekutuan-kuala-lumpur/kuala-lumpur/subway-kepong-metro-prima?place=ChIJcyKJRLdHzDERdeFs6es6yK4,"Monday - Sunday, 8:00 AM - 8:30 PM"
124,Subway Damansara Damai,"G001, Seasons Square, Jalan Pju 10/3C, Damansara Damai, 47830  Petaling Jaya, Selangor ",3.19596,101.59221,https://www.waze.com/en/live-map/directions/my/selangor/pj/subway-damansara-damai-outlet?place=ChIJC3Ibl2hFzDERwxPbt2vGpi4,"Monday - Sunday, 7:30 AM - 10:00 PM"
125,Subway Shell Salak Tinggi,"Lot 343, Jalan Bukit Changgang-Nilai, Bandar Baru Salak Tinggi, 43900 Sepang, Selangor.",2.805323,101.723729,"https://waze.com/ul?ll=2.805323,101.723729",Monday - Sunday (8:00AM - 10:00PM)
126,Subway Kidzania KL,"Kidzania Kuala Lumpur, Lot 11, Lower Ground Curve NX, No.18 Jalan PJU 7/5, 47810 Mutiara Damansara, Petaling Jaya Selangor",3.158034,101.6138,"https://waze.com/ul?ll=3.158034,101.613800",Mon - Sun : 10am-6pmTues : Close
127,Subway Eco Majestic,"1-3A Blok 1, Jalan Eco Majestic 10/1, Eco Majestic, 43500 Semenyih Selangor ",2.898997,101.833205,https://www.waze.com/en/live-map/directions/my/selangor/semenyih/subway-@-eco-majestic?place=ChIJsbCNg-3PzTERds43XoAEquA,"Monday - Sunday, 8:00 AM - 10:00 PM"
128,Subway BTHO,"No 5A, Ground Floor, Jalan Suarasa 8/3 Bandar Tun Hussien Onn, 43200 Cheras, Selangor Darul Ehsan",3.046735,101.76065,https://www.waze.com/en/live-map/directions/my/selangor/cheras/subway-bandar-tun-hussein-onn?place=ChIJKQ4pWYM1zDER1Z5A7QP-0XI,"Monday - Sunday, 7:30 AM - 10:00 PM"
129,Subway Thomson Hospital,"GF-Unit 1109-3, 11 Jalan Teknologi PJU 5, 47810 Kota Damansara, Petaling Jaya, Selangor",3.149023,101.5788,https://www.waze.com/en/live-map/directions/my/selangor/pj/subway-thomson-hospital-kota-damansara?place=ChIJA8VxjANPzDERHq2EmG3gs9Q,"Monday - Friday, 8:00 AM – 9:00PM; Saturday & Sunday, 9:00 AM – 7:00PM"
130,Subway BHP Jalan Kuching,"BHPetrol Jalan Kuching, Lot PT 4283 & Lot 6086 Jalan Kuching, 52100 Kuala Lumpur.",3.18844,101.670158,https://www.waze.com/en/live-map/directions/my/wilayah-persekutuan-kuala-lumpur/kuala-lumpur/subway-@-bhp-jalan-kuching?place=ChIJH9__naBJzDERIoGI17o-ttQ,"Monday - Sunday, 7:30 AM - 10:00 PM"
131,Subway Hero Puchong,"Lot No G-13 , Hero Puchong, Lot 1, Jalan Puteri 1/1 , 43200 Puchong, Selangor. ",3.025863,101.618133,https://www.waze.com/en/live-map/directions/my/selangor/puchong/subway-@-hero-market-bandar-puteri?place=ChIJVVVVVaK0zTERxDwfsn9pkkI,"Monday - Sunday, 9:00 AM - 9:00 PM"
132,Subway Southville City,"Lot E4-G-2 Block E Savanna Boulevard Retail Jalan BBLS 2, Bandar Baru Lembah Selatan 43800 Dengkil Selangor",2.904341,101.76447,https://www.waze.com/en/live-map/directions/my/selangor/kajang/subway-southville-city?place=ChIJu2--kJnJzTERejBdzyJYJyI,"Monday - Sunday, 8:00 AM - 10:00 PM"
133,Subway Setia Taipan,"No 58-G Jalan Setia Utama  As U13/As, Bandar Setia Alam, 40170 Shah Alam, Selangor ",3.125382,101.46857,https://www.waze.com/en/live-map/directions/my/selangor/shah-alam/subway-@-setia-taipan?place=ChIJh1cdiA1RzDERqUg9sd1Zw8U,"Monday - Sunday, 8:00 AM - 10:00 PM"
134,Subway Ole-ole,"Lot 1-3A, Ground Floor, Ole Ole Shopping Centre, No. 7, Jalan Pinang A 18/A, Seksyen 18, 40200 Shah Alam, Selangor ",3.043655,101.516821,https://www.waze.com/en/live-map/directions/my/selangor/shah-alam/subway-ole-ole?place=ChIJQ7bfKchTzDERklToQRN7jIE,"Monday - Sunday, 10:00 AM - 10:00 PM"
135,Subway Pavilion Bukit Jalil ,"Lot 1.40.00, Persiaran Jalil Utama, Bukit Jalil, Kuala Lumpur ",3.050264,101.671016,https://www.waze.com/en/live-map/directions/my/federal-territory-of-kuala-lumpur/kuala-lumpur/subway-@-pavilion-bukit-jalil?place=ChIJ5feNFj5LzDERnz6TuHwTHFo,"Monday - Sunday, 9:30 AM - 10:00 PM"
136,Subway @TimurBay Balok,"TR-10, Timur Bay @ Balok, Jalan Kuantan – Kemaman,26100 Kuantan, Pahang ",3.901533,103.364574,https://www.waze.com/en/live-map/directions/my/pahang/kuantan/subway-@timurbay-balok?place=ChIJkXY3NdyjyDERYsxgd3nLWPU,"Monday - Sunday, 9:00 AM - 10:00 PM"
137,Subway Country Homes,"9, Jalan Pusat BCH 1A, Bandar Country Homes, 48000 Rawang, Selangor",3.32351,101.525893,https://www.waze.com/en/live-map/directions/my/selangor/rawang/subway-bandar-country-homes-rawang?place=ChIJ-5TidqJDzDERuvUES0Nnsgg,"Monday - Sunday, 8:00 AM - 10:00 PM"
138,Subway Hentian Kajang,"5G, Jalan Hentian, Pusat Hentian Kajang, Jalan Reko, 43000 Kajang Selangor",2.966968,101.790229,https://www.waze.com/en/live-map/directions/my/selangor/kajang/subway-hentian-kajang?place=ChIJuTrSs13LzTERs3t41zY0X1Y,"Monday - Sunday, 8:00 AM - 10:00 PM"
139,Subway Bloom,"G-16, Pangsapuri Eco Bloom, Tingkat Eco Meadows 1, 14100 Simpang Ampat, Pulau Pinang",5.25922,100.468693,https://www.waze.com/en/live-map/directions/my/pulau-pinang/simpang-ampat/subway-eco-bloom?place=ChIJMZQvNM23SjAR4oVFqaBc7Ns,"Monday - Sunday, 10:00 AM - 10:00 PM"
140,Subway Petron Ukay Perdana,"No. PT 5765, Jln Ukay Perdana, Ukay Perdana, 68000 Ampang, Selangor",3.19712,101.775058,https://www.waze.com/en/live-map/directions/my/selangor/ampang/subway-petron-ukay-perdana?place=ChIJo0u0S085zDERqPaK5YAiCEU,Monday - Sunday (8:00AM - 10:00PM)
141,Subway Bandar Enstek,"No 85 Jalan 6/1B, Timur @ Enstek, 71760 Bandar Enstek, Negeri Sembilan.",2.748408,101.764729,https://www.waze.com/en/live-map/directions/my/negeri-sembilan/bandar-baru-enstek/subway-enstek?place=ChIJaSA0IHrBzTERxFhaHwU79XI,"Monday - Sunday, 10:00 AM - 10:00 PM"
142,Subway Dengkil,"No 23 (Aras Bawah), Jalan Deluxe 3, Pusat Perdagangan Deluxe, 43800 Dengkil, Selangor, Malaysia",2.863618,101.676015,https://www.waze.com/en/live-map/directions/my/selangor/dengkil/subway-dengkil?place=ChIJDywXYxG5zTEROGSndw1CN0c,"Monday - Sunday, 8:00 AM - 10:00 PM"
143,Subway Lotus Cheras,"Lot G27-G29, No.2, Jalan Midah 2, Taman Midah, 56000 Cheras, Kuala Lumpur",3.099541,101.734766,"https://waze.com/ul?ll=3.099541,101.734766","Monday - Sunday, 9:30 AM - 9:00 PM"
144,Subway Equine Park,"7-G, Jalan Putra Permai 1A, Taman Equine, 43300 Seri Kembangan, Selangor. ",2.996182,101.669745,https://www.waze.com/en/live-map/directions/my/selangor/seri-kembangan/subway-equine-park?place=ChIJQWbBMNO1zTERb4qKY97QGxs,"Monday - Sunday, 8:00 AM - 10:00 PM"
145,Subway Mydin Jengka,"Lot Pt 27931 (Hsm 21160),Mukim Chenor, Daerah Maran,Pahang Darul Makmur.",3.773259,102.542843,"https://waze.com/ul?ll=3.773259,102.542843",Monday - Sunday (8:00AM - 10:00PM)
146,Subway Syopz,"G-5, The Boardwalk, No.2, Jalan Taylor’s, 47500 Subang Jaya, Selangor Darul Ehsan",3.064467,101.616106,https://www.waze.com/en/live-map/directions/subway-syopz-mall-lot-lg1-7-taylor-college-lakeside-campus-subang-jaya?place=w.66584607.665977138.27399053,"Monday - Saturday, 10:00 AM – 10:00PM; Sunday, Closed"
147,Subway Lotuss Rawang,"G18, Lotus’s Rawang, No 1 Jalan Rawang 48000 Rawang Selangor.",3.302715,101.59828,https://www.waze.com/en/live-map/directions/my/selangor/rawang/subway-@-lotuss-rawang?place=ChIJHS1l7qlDzDERDYp3SOX-fd8,"Monday - Sunday, 10:00 AM - 10:00 PM"
148,Subway Matahari Mall,"Lot S15 & S16 , Ground Floor, Matahari Mall, No. 1, PJS 2/18, Taman Maju Jaya, 46000 Petaling Jaya,Selangor",3.080121,101.638012,"https://waze.com/ul?ll=3.080121,101.638012",Monday - Sunday (10:00AM - 9:30PM)
149,Subway SPARK,"1-01 Plaza Salak Park, No 2, Jalan 1/125E, Taman Desa Petaling, 57100 Kuala Lumpur",3.082778,101.702471,"https://waze.com/ul?ll=3.082778,101.702471",Monday - Sunday (8:00AM - 10:00PM)
150,Subway Cameron Highland,"B-G-23, Presint 1, Cameron Centrum, 39100 Brinchang Cameron Highlands, Pahang",4.495147,101.389435,https://www.waze.com/en/live-map/directions/my/pahang/brinchang/subway-cameron-centrum?place=ChIJEyewFclZyjERp4y2Cajhl6o,"Monday - Sunday, 9:00 AM - 11:00 PM"
151,Subway Sunway Pyramid,"LG2.32, Lower Ground Two, Sunway Pyramid, 3, Jalan PJS 11/15, Bandar Sunway, 47500 Petaling Jaya, Selangor",3.072606,101.607723,https://www.waze.com/en/live-map/directions/my/selangor/pj/subway-sunway-pyramid?place=ChIJm21YdodMzDERFtdyEMzPHLI,"Monday - Sunday, 10:00 AM - 10:00 PM"
152,Subway Caltex Serdang,"No.2, Lot.14985, Jalan SR 8/1, Taman Putra Indah, 43300, Seri Kembangan, Selangor",3.047098,101.704403,"https://waze.com/ul?ll=3.047098,101.704403","Monday - Sunday, 8:00 AM - 10:00 PM"
153,Subway Subang Bestari,"No 4, Jalan Nova N U5/N, Seksyen U5, 40150 Shah Alam, Selangor",3.178129,101.547335,https://www.waze.com/en/live-map/directions/subway-subang-bestari-jalan-nova-u5n-4-shah-alam?place=w.66519072.665518398.26851094,"Monday - Sunday, 10:00 AM - 10:00 PM"
154,Subway Denai Alam,"Unit Ground Floor, No 7, Jalan Electron E U16/E, Seksyen U16, 40160 Shah Alam,Selangor",3.161212,101.511881,https://www.waze.com/en/live-map/directions/my/selangor/shah-alam/subway-denai-alam?place=ChIJ-3Els5pRzDERJRqqSNFklxg,"Monday - Sunday, 8:15 AM - 9:45 PM"
155,Subway Aeon Taman Maluri,"Lot G32,AEON Mall Taman Maluri, Jalan Jejaka, Taman Maluri Cheras 55100, Kuala Lumpur",3.125925,101.728399,https://www.waze.com/en/live-map/directions/my/wilayah-persekutuan-kuala-lumpur/cheras/subway-aeon-taman-maluri?place=ChIJxZc1CgI3zDER0L07egWJ6A4,"Sunday - Thursday, 10:00 AM – 10:00PM; Friday & Saturday, 10:00 AM – 10:30PM"
156,Subway Batang Kali,"60-1, Jalan Ara 2, Pusat Perdagangan Ara Seksyen 5, Bandar Utama Batang Kali, 44300 Batang Kali, Selangor.",3.455017,101.662391,https://www.waze.com/en/live-map/directions/subway-batang-kali-jalan-ara-2-60?place=w.66650147.666239321.27246458,"Monday - Sunday, 8:00 AM - 10:00 PM"
157,Subway Subang Perdana,"No. 17-G, Jalan Dinar D U3/D, Seksyen U3, 40150 Shah Alam, Selangor",3.148819,101.545546,https://www.waze.com/en/live-map/directions/my/selangor/subang-jaya/subway-subang-perdana?place=ChIJ4cb8F1BPzDERwkdC9tagYg0,"Monday - Sunday, 8:00 AM - 10:00 PM"
158,Subway KL Gateway,"G1.K5, Lower Ground 1, KL Gateway Mall, 2, Jalan Kerinchi, 59200 Kuala Lumpur",3.114111,101.66327,https://www.waze.com/en/live-map/directions/my/wilayah-persekutuan-kuala-lumpur/kuala-lumpur/subway-kl-gateway-mall?place=ChIJ1cy2C85JzDERxEe6xZaRRyg,Monday - Sunday (8:00AM - 10:00PM)
159,Subway Lotuss Selayang,"Lot F-18 & 18 (External) No. 1081, Jalan Ipoh Mukim Batu 51200 Kuala Lumpur",3.222777,101.670945,"https://waze.com/ul?ll=3.222777,101.670945",Monday - Sunday (10:00AM - 10:00PM)
160,Subway Batu Berendam,"No. 7, Jalan Mutiara Melaka 4 Taman Mutiara Melaka 75350 Melaka.",2.240147,102.259756,https://www.waze.com/en/live-map/directions/my/melaka/batu-berendam/subway?place=ChIJzwepZ__v0TERPqtJ3pGBLHo,"Monday - Sunday, 8:00 AM - 10:00 PM"
161,Subway Hartamas SC,"Lot G-22A & G-22B . Hartamas Shopping Center, 60, Jalan Sri Hartamas 1, Taman Sri Hartamas, 50480 Kuala Lumpur, Wilayah Persekutuan Kuala Lumpur",3.163504,101.656995,"https://waze.com/ul?ll=3.163504,101.656995",Monday - Sunday (10:00AM - 10:00PM)
162,Subway Paradigm Mall,"LG-33A(P), LG Floor No. 1, Jalan SS7/26A Kelana Jaya 47301 Petaling Jaya Selangor",3.105084,101.596048,"https://waze.com/ul?ll=3.105084,101.596048","Monday - Sunday, 10:00 AM - 10:00 PM"
163,Subway Damen,"LG38, Lower Ground Floor Damen USJ 1 Jalan Persiaran Kewajipan USJ 1 47600 Subang Jaya",3.058525,101.59267,https://www.waze.com/en/live-map/directions/my/selangor/subang-jaya/subway-da-men?place=ChIJ9-92ti9NzDERgRUlEJ3Y8Wc,"Monday - Sunday, 10:00 AM - 10:00 PM"
164,Subway Tropicana Garden,"CC-K55A, Concourse Floor, No. 2A, Persiaran Surian Tropicana Indah, 47810 Petaling Jaya, Selangor",3.149188,101.593094,"https://waze.com/ul?ll=3.149188,101.593094",Monday - Sunday (10:00AM - 10:00PM)
165,Subway Main Place,"LG33, Main Place Mall USJ, Jalan USJ 21/10, Persiaran Kewajipan, 47630 Subang Jaya, Selangor.  ",3.02632,101.581147,https://www.waze.com/en/live-map/directions/my/selangor/subang-jaya/subway?place=ChIJjb3QkzGzzTERYh-RwcOFeEY,"Monday - Sunday, 10:00 AM - 10:00 PM"
166,Subway KLIA2,"S1-1A- A19, Sector 1, Gate J, KLIA 2, 64000 KLIA, Sepang Selangor ",2.734453,101.72228,https://www.waze.com/en/live-map/directions/my/selangor/subway?place=ChIJH0w-j8i_zTER-Ac_NnieL4E,"Monday - Sunday, 9:00 AM - 8:00 PM"
167,Subway Sungai Rengit,"89(Ground floor), Jalan Hee Seng, Sungai Rengit, 81620 Pengerang, Johor.",1.350794,104.223669,"https://waze.com/ul?ll=1.350794,104.223669",Monday - Sunday (8:00AM - 10:00PM)
168,Subway Intermark Mall,"The Intermark, Intermark Mall, 348, Jalan Tun Razak, 50400 Kuala Lumpur",3.161545,101.719918,https://www.waze.com/en/live-map/directions/my/wilayah-persekutuan-kuala-lumpur/kuala-lumpur/subway-the-intermark?place=ChIJ48goZMU3zDERrTBFRU1gP-Mhttps://www.waze.com/en/live-map/directions/my/wilayah-persekutuan-kuala-lumpur/kuala-lumpur/subway-the-intermark?place=ChIJ48goZMU3zDERrTBFRU1gP-M,"Monday - Sunday, 10:00 AM - 10:00 PM"
169,Subway Bandar Saujana Putra,"No. 11, Jalan SP 1/1, Bandar Saujana Putra, 42610 Jenjarom, Selangor",2.951905,101.576533,https://www.waze.com/en/live-map/directions/my/selangor/subway-bandar-saujana-putra?place=ChIJjReM5PWxzTERoyNPxLPojqI,"Monday - Sunday, 8:00 AM - 10:00 PM"
170,Subway Dataran Pahlawan Melaka Megamall,"G-001, Dataran Pahlawan Melaka Megamall, Jalan Merdeka Bandar Hilir 75000, Melaka",2.189751,102.252619,https://www.waze.com/en/live-map/directions/my/melaka/melaka/subway-@-dataran-pahlawan?place=ChIJY4R_6ODx0TERBtIrqcjhqno,"Monday - Sunday, 10:00 AM - 10:00 PM"
171,Subway Aeon Bandaraya,"G 78B, Aeon Bandaraya Shopping Centre No.2, Jalan Lagenda Taman 1-Lagenda 75400, Melaka ",2.211924,102.247772,"https://www.waze.com/en/live-map/directions/subway-aeon-bandaraya-melaka-aeon-bandaraya-melaka-shopping-centre,-lot-g78b?place=w.66977814.670105821.27398398","Monday - Sunday, 10:00 AM - 10:00 PM"
172,Subway Mahkota Parade,"No.1, Jalan Merdeka, Lot KG5E Ground Floor, Melaka",2.188287,102.249271,https://www.waze.com/en/live-map/directions/my/malacca/malacca/subway-mahkota-parade?place=ChIJyR00DnXx0TER3gViRhC5ymQ,Monday - Sunday (10:00AM - 10:00PM)
173,Subway Retail Unit 12,"Retail Unit 12, Galeria PJH, Aras 1, Jalan 4B, Persiaran Perdana, Presinct 4, Putrajaya, 62100",2.913198,101.684225,https://www.waze.com/en/live-map/directions/my/wilayah-persekutuan-putrajaya/putrajaya/subway?place=ChIJlfQlTkO3zTERZe1cHOXACXo,"Monday - Sunday, 8:00 AM - 8:00 PM"
174,Subway Alamanda Shopping Centre,"Alamanda Shopping Centre, Jalan Alamandra Precinct 1, Lot LG33B, Lower Grd Floor, Putrajaya, 62000",2.939529,101.710617,"https://www.waze.com/en/live-map/directions/subway-alamanda-lg33b,-alamanda-shopping-centre-putrajaya?place=w.66650141.666566950.27401139","Monday - Sunday, 10:00 AM - 10:00 PM"
175,Subway 9 Avenue,"Shop 3, Ground Floor, 9 Avenue, Taman Koporat, Putra Nilai, 71800 Nilai, Negeri Sembilan",2.811007,101.79164,"https://www.waze.com/en/live-map/directions/subway-9-avenue-shop-3,-ground-floor,-9-avenue-nilai?place=w.66715676.667091225.12045911","Monday - Sunday, 9:00 AM - 10:00 PM"
176,Subway Mydin MITC,"Mydin Hypermarket. 12 Mydin Mall MITC, G-01, Melaka, ME, Malaysia 75450 ",2.270642,102.291999,https://www.waze.com/en/live-map/directions/subway-mydin-mitc-melaka-g01-mydin-mitc-melaka-ayer-keroh?place=w.67043351.670367971.27398311,"Monday - Sunday, 9:00 AM - 10:00 PM"
177,Subway Palm Mall,"Lot 39 UG Floor, Palm Mall, Jalan Sungai Ujong, Seremban, 70200 Malaysia",2.719856,101.9229,"https://www.waze.com/en/live-map/directions/subway-palm-mall-lot-39,-ug-floor,-palm-mall-seremban?place=w.66781211.667943184.27398137","Monday - Sunday, 10:00 AM - 8:00 PM"
178,Subway Mydin Senawang,"Lot G-01, No. 110 Jalan BPS 7, Mydin Mall Senawang, 70450 Seremban, Negeri Sembilan, Malaysia",2.701351,101.980048,"https://waze.com/ul?ll=2.701351,101.980048","Monday - Sunday, 9:00 AM - 9:30 PM"
179,Subway Melaka Sentral,"KM12, Zone C, Bangunan Terminal Melaka Sentral, Jalan Tun Abdul Razak, 75300 Peringgit, Melaka, Malaysia",2.221155,102.250083,https://www.waze.com/en/live-map/directions/my/melaka/melaka/subway?place=ChIJuRtmGibw0TERKPnUw5iy7As,"Monday - Sunday, 9:30 AM - 7:00 PM"
180,Subway Aeon Seremban,"Lot G61, Aeon Seremban 2, 112 Persiaran S2 B1, Seremban 2, 70300 Seremban, Negeri Sembilan, Malaysia",2.701384,101.911948,"https://www.waze.com/en/live-map/directions/subway-aeon-seremban-2-persiaran-s2,-lot-g61,-aeon-seremban-2,-70300,-seremban-2?place=w.66781211.667877646.27400818","Monday - Sunday, 10:00 AM - 10:00 PM"
181,Subway Mesamall,"Lot G-25, MesaMall, Lot 13865, Persiaran Ilmu BBN, Bandar Baru Nilai, 71800 Nilai, Negeri Sembilan, Malaysia",2.825131,101.777424,"https://www.waze.com/en/live-map/directions/subway-mesamall-persiaran-ilmu-bbn-lot-g-25,-mesamall,-nilai-nilai?place=w.66715676.667025690.27402092","Monday - Sunday, 10:00 AM - 10:00 PM"
182,Subway Giant Kuala Pilah,"G03 & PS23, Giant Superstore Kuala Pilah, Kampung Kayu Ara, 72000 Kuala Pilah, Negeri Sembilan, Malaysia",2.737869,102.217957,"https://www.waze.com/en/live-map/directions/subway-giant-kuala-pilah-g03-and-ps23,-giant-superstore-kuala-pilah?place=w.66977819.669909266.27401875","Monday - Sunday, 10:00 AM - 7:00 PM"
183,Subway Aeon Nilai,"S-11 Level 2, Aeon Nilai, Persiaran Pusat Bandar, 71800 Bandar Baru Nilai, Negeri Sembilan, Malaysia",2.817904,101.789877,"https://www.waze.com/en/live-map/directions/subway-aeon-nilai-s-11-level-2,-aeon-nilai,-bandar-baru-nilai?place=w.66715676.667091226.27398036","Monday - Sunday, 9:30 AM - 10:00 PM"
184,Subway Unicity,"G-039 & G-40, Ground Floor, Unicity Mall, Bandar Seremban 3, 70300 Seremban, Negeri Sembilan",2.672767,101.934207,"https://www.waze.com/en/live-map/directions/subway-unicity-mall-g-039-and-g-40,-ground-floor,-unicity-mall-seremban?place=w.66781211.668008715.27398799",
185,Subway Tesco Cheng,"Lot G7, Tesco Melaka Cheng, 1, Jalan Inang 3, Taman Paya Rumput Utama, 75460 Melaka",2.281134,102.216112,"https://www.waze.com/en/live-map/directions/subway-lotuss-melaka-cheng-lot-g7,-lotuss-melaka-cheng?place=w.66977815.669909220.27401304","Monday - Sunday, 9:00 AM - 8:00 PM"
186,Subway Presint 15,"No.32, Jalan Diplomatik 3/1, Presint 15, 62050 Putrajaya",2.944474,101.721963,https://www.waze.com/en/live-map/directions/subway-presint-15-putrajaya-jalan-diplomatik-31-32?place=w.66650141.666632486.24462362,"Monday - Sunday, 8:00 AM - 10:00 PM"
187,Subway The Shore,"Lot GF-25, The Shore Shopping Gallery, 193, Pinggiran @Sungai Melaka, Jalan Persisiran Bunga Raya, 75100 Melaka",2.201859,102.250301,https://www.waze.com/en/live-map/directions/my/malacca/malacca/subway?place=ChIJx2BfhFLx0TERPWsfYPsehFw,"Monday - Sunday, 10:00 AM - 10:00 PM"
188,Subway OBR Ayer Keroh,"Lot No. S-01-SB, Overhead Bridge Restaurant Ayer Keroh, KM210, North South Expressway, 76470 Ayer keroh, Melaka",2.151982,102.693131,"https://waze.com/ul?ll=2.151982,102.693131",Monday - Sunday (9:00AM - 10:00PM)
189,Subway Mydin Jasin,"Lot No. GSRU-24, GSRU-31, Mydin Jasin, PT 8537, Seksyen 1, Bandar jasin Bestari, Mukim Ayer panas, 77200 Jasin, Melaka.",2.277683,102.38765,https://www.waze.com/en/live-map/directions/my/melaka/bemban/subway-mydin-jasin?place=ChIJWWUCNprn0TERb4BZ13hFBZs,
190,Subway AEON Ayer Keroh,"Lot G18 & G19, Ground floor, AEON Melaka Shopping Center, Lebuh Ayer keroh, 75450 Melaka.",2.23423,102.282382,https://www.waze.com/en/live-map/directions/my/malacca/ayer-keroh/subway-@-aeon-melaka?place=ChIJ670t4Inv0TERC1KujPUTQi4,"Monday - Sunday, 10:00 AM - 10:00 PM"
191,Subway Bahau,"51, Jalan Kiara 2, Pusat Perniagaan Kiara, 72100 Bahau, Negeri Sembilan.",2.810638,102.394719,https://www.waze.com/en/live-map/directions/my/negeri-sembilan/bahau/subway-bahau?place=ChIJH-tCE4lpzjERqosh_l5jSvs,"Monday - Sunday, 9:30 AM - 10:30 PM"
192,Subway Ayer@8,"No.A2-G3, Ground floor, Ayer@8, Phase 8C1, Jalan P8G, Precint 8, 62250 WP Putrajaya.",2.925637,101.680029,https://www.waze.com/en/live-map/directions/my/wilayah-persekutuan-putrajaya/putrajaya/subway-@yer8?place=ChIJIR-mw1-3zTERv_qgPVjERzw,
193,Subway Waterfront PD,"No.9 (Ground floor), Jalan waterfront 5, PD waterfront, 71000 Port Dickson, Negeri Sembilan",2.521904,101.802709,https://www.waze.com/en/live-map/directions/my/negeri-sembilan/port-dickson/subway-pd-waterfront?place=ChIJMdzQLerxzTERENiq0CQb_aM,Monday - Sunday (10:00AM - 10:00PM)
194,Subway Mydin Sebang,"GF & B-25, Mydin Pulau Sebang, PT20 & 2053, Jalan Besar, Alor Gajah, 7800 Melaka.",2.462518,102.230506,https://www.waze.com/en/live-map/directions/my/melaka/alor-gajah/subway-mydin-pulau-sebang-hypermarket?place=ChIJp2G5iMsDzjERzEx60gKtdd0,"Monday - Sunday, 10:00 AM - 10:00 PM"
195,Subway Jelebu,"189-1,Jalan Dato Menteri 71600 Kuala Kelawang, Jelebu Negeri Sembilan",2.940653,102.071944,https://www.waze.com/en/live-map/directions/my/negeri-sembilan/kuala-klawang/subway-@-kuala-klawang?place=ChIJfY4WDCbXzTERDq8XTyK04X8,"Monday - Sunday, 8:00 AM - 10:00 PM"
196,Subway Caltex Termiang,"Lot No. 40766, Bandar Seremban, Daerah Seremban, Negeri Sembilan ",2.726386,101.936951,https://www.waze.com/en/live-map/directions/my/negeri-sembilan/seremban/subway-@-caltex-temiang?place=ChIJyW6NHqvdzTER6_mByEyyaIE,"Monday - Sunday, 10:00 AM - 10:00 PM"
197,Subway E-Gate Penang,"No:1, Lebuh Tunku Kudin 2 Lot:1-01-04, E-Gate, Gelugor",5.375986,100.315323,https://www.waze.com/en/live-map/directions/my/pulau-pinang/gelugor/subway?place=ChIJh0FN23HBSjARJhwBK7ZYMkE,"Sunday - Thursday, 8:00 AM – 11:00PM; Friday & Saturday, 8:00 AM – 12:00AM"
198,Subway Autocity Penang,"1834-G2, Jalan Perusahaan Auto City North-South Highway",5.337297,100.429494,"https://www.waze.com/en/live-map/directions/subway-autocity-jalan-perusahaan,-1834-g2-1834-g2-perai?place=w.65798197.658178582.3089585","Monday - Sunday, 7:30 AM - 11:00 PM"
199,Subway Straits Quay,"Jalan Seri Tanjung Pinang 3A-1-8 & 3A-1-8A, Block A Straits Quay Retail Marina",5.459188,100.31352,https://www.waze.com/en/live-map/directions/subway-straits-quay-3-1-8-block-a-straits-quay-george-town?place=w.65732663.657392162.27399114,"Monday - Sunday, 9:00 AM - 10:00 PM"
200,Subway Queensbay,"100 Persiaran Bayan Indah Postal No. LG-46, 45, 51(B) Queensbay Mall",5.332683,100.306698,https://www.waze.com/en/live-map/directions/subway-queensbay-mall-lg-4546-queensbay-mall-bayan-lepas?place=w.65732661.657392149.27398836,"Monday - Sunday, 9:00 AM - 10:30 PM"
201,Subway Penang Sentral,"Lot 3-06, Level 3 5130 Terminal Penang Sentral 12100  Butterworth ",5.39498,100.365318,https://www.waze.com/en/live-map/directions/subway-penang-sentral-butterworth?place=w.65798198.657785371.27402192,"Monday - Sunday, 9:30 AM - 8:00 PM"
202,Subway Suntech Cybercity,1-G-1 Suntech Penang Cybercity Lintang Mayang Pasir 3,5.325683,100.28606,https://www.waze.com/en/live-map/directions/my/pulau-pinang/bayan-lepas/subway-suntech?place=ChIJUU7tsmvASjAR0MQd3CU7PHs,"Monday - Sunday, 7:00 AM - 10:30 PM"
203,Subway Sungai Dua,"723-R-G Jalan Sg Dua, Unit 9, Ground Floor,Vanda Business Park, Sungai Dua, 11700 Pulau Pinang",5.351981,100.299134,https://www.waze.com/en/live-map/directions/my/pulau-pinang/gelugor/subway?place=ChIJXfJXeKzBSjARe-z6eCDulbY,"Monday - Sunday, 7:30 AM - 11:00 PM"
204,Subway Kulim Avenue,"109 Persiaran 4, Tmn Kulim Ave Kulim Hi-Tech",5.387991,100.571469,https://www.waze.com/en/live-map/directions/subway-kulim-persiaran-4-109?place=w.65929270.659096091.5363971,"Monday - Friday, 7:30 AM – 10:00PM; Saturday & Sunday, 8:00 AM – 10:00PM"
205,Subway I-Avenue,"Medan Kampung Relau 1 1-1-45 i-Avenue, Mukim 12, Bayan Baru",5.332918,100.293404,"https://www.waze.com/en/live-map/directions/subway-i-avenue-medan-kampung-relau-1,-1-1-45-i-avenue-bayan-lepas?place=w.65732661.657261077.974465","Monday - Sunday, 7:00 AM - 10:00 PM"
206,Subway Butterworth,"#7227 Lot 2489 & 2490 Seksyen 2, Jalan Raja Uda Petronas Station",5.426373,100.383031,"https://www.waze.com/en/live-map/directions/subway-petronas-raja-uda-petronas-raja-uda,-jalan-raja-uda,-12300-7227-butterworth?place=w.65798198.657850910.2629511","Monday - Sunday, 7:30 AM - 10:30 PM"
207,Subway Perak Road,"338B-1 Jalan Perak, Jelutong, PP 11600, Malaysia",5.397825,100.314668,"https://www.waze.com/en/live-map/directions/subway-perak-road-338b-1-jalan-perak,-taman-desa-green,-11600-jelutong?place=w.65732662.657392156.16795471","Monday - Sunday, 7:00 AM - 10:30 PM"
208,Subway Amanjaya Mall,"Kompleks Amanjaya, Kiosk 28, Tingkat 2, Jalan Jati 1, 08000, Sungai Petani, Kedah, 08000 Sungai Petani",5.673434,100.508465,https://www.waze.com/en/live-map/directions/my/kedah/sungai-petani/subway?place=ChIJ53V_p58pSzARnvpqNQy-Fp0,"Monday - Thursday, 10:30 AM – 10:30PM; Friday - Sunday, 10:00 AM – 11:00PM"
209,Subway Tesco Extra Seberang Jaya,"OL6, Tesco Extra Seberang Jaya 2762 Persiaran Sembilang Tesco Extra Sebrang Jaya",5.405616,100.405037,https://www.waze.com/en/live-map/directions/my/penang/seberang-jaya/subway?place=ChIJs_5CjcjFSjARV7yDpEwlzQo,"Monday - Sunday, 10:00 AM - 9:30 PM"
210,Subway Kampung Baru,No.2 Lorong Maju Utama 1 Pusat Perniagaan Jalan Maju,5.352051,100.47146,https://www.waze.com/en/live-map/directions/my/pulau-pinang/bukit-mertajam/subway-(kpg-baru)?place=ChIJE-bsw_DISjAReH7_FohYJ9I,"Monday - Sunday, 7:00 AM - 10:30 PM"
211,Subway Tesco Bukit Mertajam,"TESCO Bukit Mertajam G6, 2323 Jalan Rozhan",5.31583,100.475838,https://www.waze.com/en/live-map/directions/my/pulau-pinang/bukit-mertajam/subway?place=ChIJg_H-AVzJSjARy_9wgqbOXJc,"Monday - Sunday, 10:00 AM - 10:00 PM"
212,Subway Pantai Cenang Langkawi,Lot 2606 Jalan Pantai Cenang PG3 Cenang Plaza Beach Hotel,6.290615,99.727358,https://www.waze.com/en/live-map/directions/my/kedah/langkawi/subway?place=ChIJiVdQS9mHSzAR2rPoPpI09Cg,"Monday - Sunday, 9:00 AM - 9:30 PM"
213,Subway Alor Setar Mall,"Kawasan Perusahaan Tandop Baru G-20, Ground Floor Alor Star Mall",6.08202,100.360966,"https://waze.com/ul?ll=6.082020,100.360966","Monday - Sunday, 10:00 AM - 8:00 PM"
214,Subway C-Mart Arau,"Lot 38-39, Kompleks Arau Pekan Arau, Jalan Arau",6.428629,100.272884,https://www.waze.com/en/live-map/directions/my/perlis/arau/subway?place=ChIJFVENGGOiTDAR3jduHj00aRU,"Monday - Sunday, 9:00 AM - 9:00 PM"
215,Subway Pearl City Simpang Empat,"G-11, No 1720 Persiaran Mutiara 4, Pusat BandarTasek Mutiara",5.276839,100.490417,"https://waze.com/ul?ll=5.276839,100.490417","Monday - Saturday, 8:00 AM – 10:30PM; Sunday, 8:00 AM – 11:00PM"
216,Subway Central Square,"23 Jalan Kampung Baru Lot GK-02 Central Square Shopping Center, 08000 Sungai Petani, Kedah",3.163051,101.706183,"https://www.waze.com/en/live-map/directions/subway-central-square-lot-gk-02,-central-square-shopping-center-sungai-petani?place=w.65863736.658571828.27396324","Monday - Sunday, 9:00 AM - 10:00 PM"
217,Subway Lintang Angsana Ayer Itam,"38A, Lintang Angsana, Bandar Baru Air Itam, 11500 Ayer Itam, Pulau Pinang",5.388732,100.282409,https://www.waze.com/en/live-map/directions/my/pulau-pinang/ayer-itam/subway?place=ChIJ9fGNNPXBSjAR6vgj3WnHR_w,"Monday - Sunday, 7:00 AM - 10:00 PM"
218,Subway Petronas Batu Feringghi,Lot 697 & 764 Jalan Batu Feringghi Petronas Gas Station/C-Store,5.472207,100.276803,https://www.waze.com/en/live-map/directions/my/pulau-pinang/batu-ferringhi/subway-(batu-feringghi)?place=ChIJ8yJttAbDSjARgKUgMOEvqNQ,"Monday - Sunday, 8:00 AM - 11:00 PM"
219,Subway C-Mart Alor Setar,"No. S6 & S13, Lot 92, Jalan Istana Kuning, 05000, Alor Setar, Kedah, 05000 Alor Setar",6.124727,100.368299,"https://www.waze.com/en/live-map/directions/subway-jalan-istana-kuning-no.-s6-and-s13,-lot-92,-jalan-istana-kuning,-05000-alor-setar?place=w.65798205.657785445.27395037","Monday - Sunday, 8:00 AM - 10:00 PM"
220,Subway BDI Jitra,"Kawasan Perusahaan Bandar Darulaman Plot 40, Lot 21",6.253698,100.429088,https://www.waze.com/en/live-map/directions/my/kedah/jitra/subway?place=ChIJtYnQ09FZSzARxL0hfHsxYLk,"Monday - Thursday, 8:00 AM – 10:30PM; Friday & Saturday, 8:00 AM – 11:00PM"
221,Subway Landmark Centre,1 Jalan KLC Satu Unit 1K-07 Landmark Central Shopping,5.38569,100.546555,https://www.waze.com/en/live-map/directions/subway-kulim-landmark-central-1?place=w.65863734.658965019.27398111,
222,Subway Padang Kota Lama,"15, 17, Light St, Georgetown, 10200 George Town, Penang",5.420162,100.341681,https://www.waze.com/en/live-map/directions/subway-lebuh-light-15-17-george-town?place=w.65732662.657588766.23708937,"Sunday - Thursday, 7:30 AM – 10:00PM; Sunday, 8:00 AM – 9:00PM"
223,Subway Nibong Tebal,Kompleks Industri Cenderawasih Lot G75 & G76 Jalan Besar Mukim 11,5.178748,100.481445,https://www.waze.com/en/live-map/directions/my/pulau-pinang/nibong-tebal/subway?place=ChIJ86QKq1WwSjARvF_HLg00TNA,"Monday - Sunday, 8:00 AM - 10:30 PM"
224,Subway Jetty Point,"Shop Lot Zone 2N-Lot 7,Jetty Point Duty Free Complex, Jetty Kuah,70000 Kedah",6.306447,99.851812,"https://www.waze.com/en/live-map/directions/subway-jetty-point-duty-free-zone-2n-lot-7,-jetty-point-duty-free-complex-langkawi?place=w.65470527.654377591.27401583","Monday - Sunday, 9:00 AM - 8:00 PM"
225,Subway Balik Pulau,"47, Jln Tun Sardon, Balik Pulau, 11000 Penang",5.351048,100.239592,"https://www.waze.com/en/live-map/directions/subway-balik-pulau-jln-tun-sardon,-balik-pulau,-11000-penang-47?place=w.65667126.656933399.27399050","Monday - Sunday, 7:00 AM - 10:30 PM"
226,Subway City Junction,"No. 2-1-5 Lot C,  City Junction,Persiaran Lengkuas 2 ",5.449807,100.304966,https://www.waze.com/en/live-map/directions/my/pulau-pinang/tanjung-tokong/subway-city-junction?place=ChIJAW7S9HrDSjARVTdLpvJBvao,"Monday - Sunday, 7:00 AM - 10:00 PM"
227,Subway Setia Sentral,"11A, Lorong Setia Sentral 1, Pusat Perniagaan  Setia Sentral, Bukit Mertajam",5.355626,100.417626,https://www.waze.com/en/live-map/directions/my/pulau-pinang/bukit-mertajam/subway-(setia-sentral)?place=ChIJj4as48rHSjARvTYIDetyXDs,"Monday - Sunday, 7:00 AM - 11:00 PM"
228,Subway Hutton Lane,"227, Jalan Hutton, 10050 George Town, Pulau Pinang",5.422105,100.326087,https://www.waze.com/en/live-map/directions/subway-jalan-hutton-227-george-town?place=w.65732662.657523230.26395792,"Monday - Sunday, 7:00 AM - 10:30 PM"
229,Subway G Walk,"No G-8A, Ground Floor, Gurney Walk,  18, Gurney Dr,  10250 George Town, PG",5.430396,100.319314,https://www.waze.com/en/live-map/directions/my/pulau-pinang/george-town/subway-(gurney-walk)?place=ChIJaaZRFm3DSjAR4HjTy6E-t84,"Monday - Sunday, 8:30 AM - 10:30 PM"
230,Subway Bertam Perdana,"11, Jalan Dagangan 9 Pusat bandar Bertam Perdana, Kepala Batas, 13200, Penang",5.517876,100.450793,https://www.waze.com/en/live-map/directions/my/pulau-pinang/kepala-batas/subway-bertam-perdana?place=ChIJJ7a_z6vRSjARRQGv2W_rVxw,"Monday - Sunday, 7:00 AM - 10:30 PM"
231,Subway Eco Borealis,"23-G Jalan Borealis 3, Pusat Komersial Borealis 14100 Bandar Cassia Penang",5.235775,100.443824,https://www.waze.com/en/live-map/directions/my/penang/simpang-ampat/subway?place=ChIJT6MgxaS3SjARlgi_WFtpbu8,"Monday - Sunday, 8:00 AM - 10:30 PM"
232,Subway Summersky Square,"No 1-1-25 Summersky Square, Jalan Tiram 8, 11900 Bayan Lepas, Penang ",5.299543,100.26721,https://www.waze.com/en/live-map/directions/my/pulau-pinang/bayan-lepas/subway-summerskye-square?place=ChIJjQsTE_K_SjARwSTiAATPWdw,"Monday - Sunday, 7:00 AM - 10:30 PM"
233,Subway Lam Wah Ee,"Subway Food Court Lam Hwa Ee Hospital   141, Jalan Tan Sri Teh Ewe Lim Jelutong, 11600 George Town, Pulau Pinang",5.39152,100.303956,https://www.waze.com/en/live-map/directions/my/pulau-pinang/george-town/subway-lam-wah-ee-hospital?place=ChIJW1TX-PTDSjARberVF-DfE-E,"Monday - Sunday, 7:30 AM - 10:00 PM"
234,Subway Caltex Sungai Dua,"Subway Caltex Sg Dua Sungai Dua North Bound, PMT 10359, KM 132.5, Lebuhraya Utara Selatan Permatang Pauh, 13600 Pulau Pinang",5.424405,100.414021,https://www.waze.com/en/live-map/directions/my/pulau-pinang/permatang-pauh/subway-caltex-sungai-dua-north-bound?place=ChIJdV7B_wXFSjAR-at0zqJ4MDY,"Monday - Sunday, 8:00 AM - 10:00 PM"
235,Subway Serai Wangi,"Lot 3, N0 2500, Lorong Serai Wangi 4/10, Taman Serai Wangi III &IV, Padang Serai, Kedah 09400",5.523597,100.544609,https://www.waze.com/en/live-map/directions/my/kedah/padang-serai/subway-serai-wangi-mall?place=ChIJgabIwsjTSjAREoQ3vI23-7o,Monday - Sunday (8:00AM - 10:00PM)
236,Subway Greentown Ipoh,"No. 5 Persiaran Greentown 4 Greentown Business Centre  30450 Ipoh, Perak, Malaysia",4.598512,101.092992,https://www.waze.com/en/live-map/directions/my/perak/ipoh/subway-greentown-ipoh?place=ChIJb83bGGDsyjER8QyDGgQ7TE8,"Monday - Sunday, 9:00 AM - 10:30 PM"
237,Subway Ipoh Parade,"1st Floor, Ipoh Parade, Lot F24 & F35C, 105, Jalan Sultan Abdul Jalil, 30450 Ipoh, Perak",4.596175,101.090191,"https://www.waze.com/en/live-map/directions/subway-ipoh-parade-f24,-1st-floor,-ipoh-parade,30450?place=w.66256942.662503884.27396326","Monday - Sunday, 10:00 AM - 10:00 PM"
238,Subway Mydin Meru,"Subway Mydin Mall Meru G-04 Mydin Wholesale Hypermarket Meru Raya, Lot PT 229142, Jalan Meru Bestari B2, Bandar Meru Raya, 30020 Jelapang, Ipoh, Perak",4.670851,101.075181,https://www.waze.com/en/live-map/directions/my/perak/ipoh/subway?place=ChIJ89BRxXyTyjERHMyK2xP0JfE,"Monday - Sunday, 10:00 AM - 9:30 PM"
239,Subway Medan Ipoh,"75, Jalan Medan Ipoh 1A,Medan Ipoh Bestari, 31400, Ipoh, Perak",4.619899,101.116717,https://www.waze.com/en/live-map/directions/subway-medan-ipoh-bestari-jalan-medan-ipoh-1a-75?place=w.66256942.662700494.11303275,"Monday - Sunday, 7:00 AM - 10:30 PM"
240,Subway Seri Iskandar,"No.26 Jalan PP1,Bandar Universiti, Sri Iskandar, 31750, Tronoh, Perak             ",4.364381,100.977375,https://www.waze.com/en/live-map/directions/subway-bandar-universiti-jalan-pp-1-26-seri-iskandar?place=w.66191404.661782964.11147577,"Monday - Sunday, 7:00 AM - 10:30 PM"
241,Subway Kerian Sentral,"G-06A, Ground Floor,Kerian Sentra Mall,Jalan Sekolah, Parit Buntar 34200 Perak ",5.127493,100.482662,"https://www.waze.com/en/live-map/directions/subway-kerian-sentral-mall-lot-23252-jalan-sekolah,-parit-buntar-parit-buntar?place=w.65863731.658506241.27398139","Monday - Sunday, 10:00 AM - 9:30 PM"
242,Subway Kampar,"2243, Jalan Batu Sinar, Taman Bandar Baru, Kampar, Perak ",4.326192,101.145258,"https://www.waze.com/en/live-map/directions/subway-taman-bandar-baru-jalan-batu-sinar,-taman-bandar-baru,-31900-2243-kampar?place=w.66256939.662897073.13065527","Monday - Sunday, 7:00 AM - 10:30 PM"
243,Subway Kubang Kerian,"1617, Bandar Baru Kubang Kerian, Kota Bahru, Kelantan ",6.099312,102.279646,https://www.waze.com/en/live-map/directions/subway-kubang-kerian-persiaran-kk-6-1617-kota-bharu?place=w.67043389.670302818.12546704,"Monday - Sunday, 7:30 AM - 11:00 PM"
244,Subway Kota Bharu,"Lot 211, Tingkat Bawah, Jalan Ismail, Kota Bahru, 15000, Kelantan ",6.128948,102.238194,https://www.waze.com/en/live-map/directions/my/kelantan/kota-bharu/subway?place=ChIJEWqdT8-vtjERG5H-Ghng7is,"Monday - Sunday, 7:30 AM - 10:00 PM"
245,Subway Taiping Sentral,"G-17, Ground Floor, Taiping Sentral Mall. 36, Jln Istana Larut, Taiping, Perak ",4.865819,100.731208,"https://www.waze.com/en/live-map/directions/subway-taiping-sentral-mall-lot-g-17,ground-floor,-taiping-sentral-mall?place=w.65994801.660144615.27398041","Monday - Sunday, 10:00 AM - 9:30 PM"
246,Subway Seri Manjung,"No.9 Ground Floor, Jalan PPMP 3/1, Pusat Perniagaan Manjung Point 3, 32040 Seri Manjung, Perak.",4.215572,100.667505,https://www.waze.com/en/live-map/directions/subway-seri-manjung-jalan-ppmp-31-9?place=w.65994794.659751334.26632482,"Monday - Sunday, 8:00 AM - 10:30 PM"
247,Subway Station 18,"25G, Susuran Stesen 18,Station 18, 31650 Ipoh, Perak Darul Ridzuan.",4.543636,101.07136,https://www.waze.com/en/live-map/directions/subway-station-18-susuran-stesen-18-25-ipoh?place=w.66256941.662372806.25614979,"Monday - Sunday, 8:00 AM - 10:30 PM"
248,Subway Tanah Merah,"Lot 3239, Jalan Jedok, 17500 Tanah Merah, Kelantan",5.81186,102.131137,https://www.waze.com/en/live-map/directions/subway-tanah-merah-jalan-ismail-petra?place=w.66912314.669319749.27031121,"Monday - Sunday, 7:30 AM - 11:00 PM"
249,Subway Gong Badak,"PT 35310, Dataran Tembesu,Wakaf Tembesu, 21300 Kuala Nerus, Terengganu.",5.356132,103.096031,"https://www.waze.com/en/live-map/directions/subway-gong-badak-ground-floor,-pt35310-wakaf-tembesu-kuala-terengganu?place=w.67567670.675676696.27398087","Monday - Sunday, 7:30 AM - 11:00 PM"
250,Subway Paya Bunga Square,"G-K11 , Paya Bunga Square, Jalan Masjid Abidin, 20200,   K.Terengganu, Terengganu, MY ",5.331021,103.136644,https://www.waze.com/en/live-map/directions/subway-paya-bunga-square-lot-3133k-jalan-masjid-abidin-kuala-terengganu?place=w.67567669.675938837.27398086,"Monday - Sunday, 8:00 AM - 10:00 PM"
251,Subway Tanjung Malim,"No 19, Jalan Cahaya, Taman Anggerik Desa, Tanjung Malim, 35900, Perak ",3.690488,101.522399,https://www.waze.com/en/live-map/directions/my/perak/tanjong-malim/subway?place=ChIJBy8ttnCHyzERlRmPDszCHPU,"Monday - Sunday, 8:00 AM - 10:30 PM"
252,Subway Jerteh,"Lot 176 Jalan Tuan Hitam, 22000, Jerteh, Terengganu",5.736547,102.493726,https://www.waze.com/en/live-map/directions/my/terengganu/jerteh/subway-jerteh?place=ChIJndX-_BnztjERwgOewIzsRuU,"Monday - Sunday, 7:30 AM - 11:00 PM"
253,Subway Kemaman,"PT 21078, Tingkat Bawah, Jalan Kedidi Kiri, Taman Cukai Utama, 24000 Kemaman, Terengganu",4.222398,103.421448,https://www.waze.com/en/live-map/directions/subway-kemaman-jalan-kedidi-kiri-cukai?place=w.67764266.677773734.26690259,"Monday - Sunday, 7:00 AM - 10:00 PM"
254,Subway Dungun Town,"PT 18073, Tingkat Bawah, Pusat Perniagaan Sura Gate, 23000, Dungun, Terengganu.",4.756545,103.41873,https://www.waze.com/en/live-map/directions/my/terengganu/kuala-dungun/subway?place=ChIJNciIkmYPyDERHWsf9JXn0C8,"Monday - Sunday, 7:30 AM - 11:00 PM"
255,Subway  BHP Tunjung,"PT 1670, Lebuh Raya Tunjung-Pasir Mas, 16010 Kota Bharu,  Kelantan ",6.060378,102.228682,"https://waze.com/ul?ll=6.060378,102.228682","Monday - Sunday, 7:30 AM - 11:00 PM"
256,Subway Ipoh South Gate,No. 21 (Ground Floor) Jalan Pulai Hartamas Medan Pulai Hartamas 31300 Ipoh Perak,4.549662,101.117336,https://www.waze.com/en/live-map/directions/my/perak/ipoh/subway?place=ChIJIw7RWyvvyjER5akIKINdSlw,Monday - Sunday (8:00AM - 10:00PM)
257,Subway Johor Bahru City Square,"J3-19,Johor Bahru City Square ,106-108,Jalan Wong Ah Fook,80000,JB",1.461799,103.76396,https://www.waze.com/en/live-map/directions/my/johor/johor-bahru/subway?place=ChIJIZEF0twS2jERxTI2QsUbLJY,"Monday - Sunday, 10:00 AM - 10:00PM"
258,"Subway Lotus's Tebrau","G-45,No.1 Persiaran Desa Tebrau ,81100,JB,Johor",1.549935,103.795658,https://www.waze.com/en/live-map/directions/subway-lotus-tebrau-city-persiaran-desa-tebrau-lotuss-desa-tebrau-1-johor-bahru?place=w.68026383.680198299.27398109,"Monday - Sunday, 9:30 AM - 10:00PM"
259,Subway Mall of Medini,"G32, Mall of Medini ,No 4, Lebuh Medini Utara,79200 Iskandar Puteri, Johor",1.426769,103.633781,"https://www.waze.com/en/live-map/directions/subway-mall-of-medini-g32,-ground-floor,-mall-of-medini,-iskandar-puteri?place=w.67895310.679149711.27401128","Monday - Sunday, 9:00 AM - 9:00PM"
260,Subway Petronas Nusa Perintis,"Lot PTD 77638, Taman Nusa Perintis, Gelang Patah, 81550, Johor",1.451255,103.59586,https://www.waze.com/en/live-map/directions/my/johor/gelang-patah/subway-petronas-nusa-perintis?place=ChIJLyr2uNUL2jER581yCNmjMl8,"Monday - Sunday, 8:00 AM - 10:00PM"
261,Subway Shell Muar,"Union Service Station (Shell Station )No.29, Jalan Bakri, 84000, Muar, Johor.",2.048881,102.570753,https://www.waze.com/en/live-map/directions/my/johor/muar/subway-shell-muar?place=ChIJP2oqVpm50TERq13_Zb-vP94,"Monday - Sunday, 8:00 AM - 11:00PM"
262,Subway Sutera Mall,"Lot L2-017, Sutera Mall, No. 1, Jalan Sutera Tanjung 8/4, Taman Sutera Utama, 81300 Skudai, Johor Bahru, Malaysia",1.517745,103.671095,"https://www.waze.com/en/live-map/directions/subway-sutera-mall-sutera-mall,-l2-017,-level-2,-1-skudai?place=w.67960847.679411864.27398037","Monday - Sunday, 10:30 AM - 10:30PM"
263,Subway Galleria Kotaraya,"LG 33, Galleria@Kotaraya, Jalan Trus, 80000 Johor Bahru.",1.459494,103.76306,https://www.waze.com/en/live-map/directions/my/johor/johor-bahru/subway?place=ChIJ_e39ycIS2jERkwjgfUYlVZA,"Monday - Sunday, 8:30 AM - 9:00PM"
264,Subway Anjung Neighbourhood Centre,"Lot 11, Anjung Neighbourhood Centre, 5, Persiaran Ledang Heights, 79250 Iskandar Puteri, Johor.",1.424643,103.616775,https://www.waze.com/en/live-map/directions/my/johor/iskandar-puteri/subway?place=ChIJhaiCWpQL2jERaD5bcCxRMHg,"Monday - Sunday, 8:30 AM - 10:00PM"
265,Subway Aeon Mall Bandar Dato Onn,"AEON Mall Bandar Dato' Onn, Lot-S07, No. 3, Jalan Dato' Onn 3, Bandar Dato Onn, 81100,Johor Bahru, Johor",1.563988,103.734467,"https://waze.com/ul?ll=1.563988,103.734467","Sunday - Thursday, 10:00 AM – 10:00PM; Friday & Saturday, 10:00 AM – 10:30PM"
266,Caltex Taman Pelangi indah,"Caltex Lot-88070, Persiaran Pelangi Indah, Tmn Pelangi Indah, 81800, Ulu Tiram, Johor ",1.569918,103.800487,https://www.waze.com/en/live-map/directions/subway-(taman-pelangi-indah)-persiaran-pelangi-indah-ulu-tiram?place=w.68026384.680263837.17703093,"Monday - Sunday, 8:00 AM - 11:00PM"
267,Subway Larkin Sentral,"Lot No. 5B-04(B), Ground Floor, Larkin Sentral Bus Terminal Building No.5,Jalan Garuda, 80350 Johor Bahru, Johor, Malaysia",1.495668,103.741777,"https://www.waze.com/en/live-map/directions/subway-larkin-sentral-5b-04(b)-ground-floor,-larkin-bus-sentral-terminal-johor-bahru?place=w.67960847.679870614.27402349","Monday - Sunday, 8:00 AM - 11:00PM"
268,Subway Kluang Mall,"Lot G13A & G-13B, Ground Floor, Kluang Mall, Jalan Rambutan, Bandar Kluang, 86000 Kluang, Johor, Malaysia",2.040074,103.32058,"https://www.waze.com/en/live-map/directions/subway-kluang-mall-g13-aandb,-ground-floor,-kluang-mall?place=w.67698708.677118156.27401141","Monday - Sunday, 10:00 AM - 9:30PM"
269,Subway Aeon Mall Kulaijaya,C12 Food Avenue Aeon Mall Kulaijaya 81000 Kulai,1.640585,103.617096,https://www.waze.com/en/live-map/directions/my/johor/kulai/subway-kulai?place=ChIJP8sM5eh52jERbUu6HaABxlU,"Monday - Sunday, 10:00 AM - 10:00PM"
270,Subway Paradigm Mall JB,GF36 & GF37 Paradgim Mall JB Jalan Sudai 81200 JB,1.515725,103.685646,https://www.waze.com/en/live-map/directions/my/johor/johor-bahru/subway-paradigm-mall-jb?place=ChIJYQxRhlVy2jERRagMQ3M8Elg,"Monday - Sunday, 10:00 AM - 10:00PM"
271,Subway Bandar Seri Alam,"No. 12, Jalan Suria, Bandar Seri Alam, 81750 Masai, Johor Bahru",1.495905,103.871291,https://www.waze.com/en/live-map/directions/subway-seri-alam-jalan-suria-1-masai?place=w.68091919.680722582.4701270,"Monday - Sunday, 8:00 AM - 11:00PM"
272,Subway Caltex Taman Daya,"Lot 110500, Caltex Station, Jln Nipah 2, Tmn Daya, 81100, JB",1.544111,103.762347,https://www.waze.com/en/live-map/directions/subway-caltex-taman-daya-jalan-nipah-2-johor-bahru?place=w.68026383.680001690.21444747,"Monday - Sunday, 8:00 AM - 10:00PM"
273,Subway BHP Taman Perling,"BHP Perling, Lot 588, Jln Persiaran Perling, Tmn Perling, 81200,JB",1.499539,103.682181,https://www.waze.com/en/live-map/directions/subway-bhpetrol-taman-perling-johor-bahru?place=w.67960847.679477398.23205426,"Monday - Sunday, 8:00 AM – 10:00PM; Wednesday, 8:00 AM – 8:00PM"
274,Subway Aeon Bukit Indah,"G12A AEON Bukit Indah SC, Jalan Indah 15/2, Taman Bukit Indah, 81200, Johor Bahru, Johor.",1.481752,103.655763,https://www.waze.com/en/live-map/directions/my/johor/johor-bahru/subway?place=ChIJZfgu0ktz2jERd9t1YSA5H_s,"Monday - Sunday, 10:00 AM - 10:00PM"
275,Subway Giant Hypermarket Plentong,"Lot No. R125, Giant Hypermall Plentong, No.3 Jalan Masai Lama, Mukim Plentong, 81750 Masai, Plentong, Johor.",1.528057,103.814659,"https://www.waze.com/en/live-map/directions/subway-giant-plentong-lot-r125,-giant-hypermarket-plentong-johor-bahru?place=w.68026383.680329369.27399054","Monday - Saturday, 10:30 AM – 10:00PM; Sunday, 10:30 AM – 9:00PM"
276,Subway KSL City,"Lot LG-09, KSL City, No. 33, Jalan Seladang, Taman Abad, 80250 Johor Bahru.",1.485438,103.762881,"https://waze.com/ul?ll=1.485438,103.762881",Monday - Sunday (10:00AM - 10:00PM)
277,Subway Taman Bukit Dahlia,"No. 14, Jalan Serangkai 18, Taman Bukit Dahlia, 81700 Pasir Gudang",1.478372,103.894322,https://www.waze.com/en/live-map/directions/subway-bukit-dahlia-jalan-serangkai-18-pasir-gudang?place=w.68091919.680853652.4705876,"Monday - Sunday, 8:00 AM - 11:00PM"
278,Subway Plaza Angsana,"No.L1.16, Level 1 Plaza Angsana, Pusat Bandar Tampoi, Jalan Skudai, 81200 Johor Bahru, Johor",1.494927,103.705748,"https://www.waze.com/en/live-map/directions/subway-angsana-plaza-angsana,-l1.16,-level-1,-plaza-angsana-johor-bahru?place=w.67960847.679674006.27400822","Monday - Sunday, 10:00 AM - 10:00PM"
279,Subway Aeon Taman Universiti Shopping Centre,"LG09A, Aeon Taman Universiti, No.4, Jalan Pendidikan, Taman Universiti, 81300 Skudai, Johor. ",1.542432,103.629242,"https://www.waze.com/en/live-map/directions/subway-aeon-taman-universiti-lg09a,-lower-ground-floor,-aeon-taman-universiti-skudai?place=w.67895311.679149722.27401312","Monday - Sunday, 10:00 AM - 10:00PM"
280,Subway Senai International Airport,"Lot E9, AeroMall, Senai International Airport, 81250 Johor Bahru, Johor, Malaysia.",1.635896,103.665889,"https://www.waze.com/en/live-map/directions/subway-senai-airport-e9,-aeromall,-senai-international-airport,-81250-johor-bahru?place=w.67960848.679411876.27402095","Monday - Sunday, 8:30 AM - 9:00PM"
281,Subway Plaza Pelangi,"Lot No.101A, Level 1, Plaza Pelangi, No.2, Jalan Kuning, Taman Pelangi, 80400 Johor Bahru.",1.479993,103.765305,"https://www.waze.com/en/live-map/directions/subway-plaza-pelangi-101a,-level-1,-plaza-pelangi,-taman-pelangi-johor-bahru?place=w.68026383.680001684.27402354","Monday - Friday, 10:30 AM – 8:00PM; Saturday & Sunday, 10:30 AM – 8:30PM"
282,Subway Mount Austin Shoplot,"41, Jalan Austin Heights 3, Taman Mount Austin, 81100 Johor Bahru.",1.560592,103.780164,https://www.waze.com/en/live-map/directions/my/johor/johor-bahru/subway-mount-austin-halal?place=ChIJEecjbYZu2jERqDYBEzH6nR8,"Monday - Sunday, 8:00 AM - 10:00PM"
283,Subway Old Street Commercial Centre,"23, Jalan Rotan Utama, Taman Sri Jaya, 83000, Batu Pahat, Johor",1.86332,102.954377,https://www.waze.com/en/live-map/directions/subway-taman-sri-jaya-jalan-rotan-utama-23-batu-pahat?place=w.67502099.674693306.7459933,"Monday - Sunday, 8:00 AM - 11:00PM"
284,Subway Segamat Shoplot,"115, Jalan Genuang, 85000, Segamat, Johor",2.502533,102.821669,https://www.waze.com/en/live-map/directions/my/johor/segamat/subway?place=ChIJy2DZmzvTzzERAyugub3kHCM,"Monday - Sunday, 8:00 AM - 10:00PM"
285,Subway Mas Jaya Muar,"No. 28, Jalan Perniagaan Jaya, Jln Salleh, Pusat Perniagaan Mas Jaya, 84000 Muar, Johor.",2.068428,102.578707,"https://waze.com/ul?ll=2.068428,102.578707",Monday - Sunday (8:00AM - 10:00PM)
286,Subway BHP Pagoh South,"BHPetrol R&R Pagoh Selatan, KM135 Lebuhraya Utara Selatan Arah Selatan, 84600 Muar, Johor",2.121149,102.793571,https://www.waze.com/en/live-map/directions/subway-bhp-randr-pagoh-selatan-bhpetrol-randr-pagoh-selatan?place=w.67371029.673644756.27400771,"Monday - Sunday, 8:00 AM - 11:00PM"
287,Subway Ecoworld Kota Masai Shoplot,"No 3A, Jalan Ekoperniagaan 8, Taman Kota Masai 81700 Pasir Gudang, Johor",1.485413,103.93673,https://www.waze.com/en/live-map/directions/my/johor/pasir-gudang/subway-kota-masai?place=ChIJ1ZRHX21B2jER8FMS9f0tzto,"Monday - Sunday, 8:00 AM - 11:00PM"
288,Subway Petron Kluang,"Station Minyak Petron, Jalan 1, Taman Bersatu, 86000 Mukim Paloh, Kluang, Johor",2.021031,103.309815,https://www.waze.com/en/live-map/directions/my/johor/kluang/subway-@-petron-taman-bersatu?place=ChIJnfcbMaRt0DERVtSlZ7XgfcQ,"Monday, 9:00 AM – 11:00PM; Tuesday - Sunday, 8:00 AM – 11:00PM"
289,Subway Kota Tinggi Shoplot,"No.9, Jalan Niaga 8, 81900 Kota Tinggi, Johor",1.729398,103.903118,https://www.waze.com/en/live-map/directions/my/johor/kota-tinggi/subway-kota-tinggi?place=ChIJibMPjrph2jEROudwI1t57e0,"Monday - Sunday, 8:00 AM - 10:30PM"
290,Subway BHP Pagoh North,"BHPetrol, Kawasan R&R Pagoh North Bound RSA, 84600 Johor",2.141547,102.701221,https://www.waze.com/en/live-map/directions/my/johor/subway-@-bhp-randr-pagoh-utara?place=ChIJX_RJp0fJ0TERdhsWDaRGAic,Monday - Sunday (8:00AM - 11:00PM)
291,Subway Mydin Mutiara Rini,"Lot G-12, Mydin Mutiara Rini, 81300, Skudai, Johor",1.515083,103.635457,"https://waze.com/ul?ll=1.515083,103.635457","Monday - Sunday, 8:00 AM - 8:30 PM"
292,Subway Bandar Penawar,"21, Jalan Jelutong 1, Bandar Penawar 82200 Pengerang, Johor",1.573252,104.21239,https://www.waze.com/en/live-map/directions/my/johor/bandar-penawar/subway?place=ChIJaUWjnHNN2jERO8_dn_ndEMc,"Monday - Sunday, 8:00 AM - 10:00PM"
293,Subway Pontian,"No.12, Jalan Kota Emas 3, Pusat Perniagaan Kota Emas 82000 Pontian, Johor",1.479899,103.39897,https://www.waze.com/en/live-map/directions/my/johor/pontian/subway-pontian?place=ChIJGZomOfuj0DERpchU-Ids_nU,"Monday - Sunday, 8:00 AM - 10:30PM"
294,Subway Parit Raja,"8, Jalan Universiti 2, Taman Universiti, 86400 Parit Raja, Batu Pahat, Johor",1.850495,103.075217,https://www.waze.com/en/live-map/directions/my/johor/parit-raja/subway-parit-raja?place=ChIJQb_3Q65Z0DERvzOCHRuHTuA,"Monday - Sunday, 10:00 AM - 10:00PM"
295,Subway Petronas TAR,"Lot PTB 21742, Mukim Bandar Johor Bahru, Jalan Tun Razak, 80100 Johor Bahru",1.489029,103.72927,https://www.waze.com/en/live-map/directions/my/johor/johor-bahru/subway-petronas-taman-tasek?place=ChIJh_H5EQ9z2jERaeTL9_-cvEc,"Monday - Sunday, 8:30 AM - 10:30PM"
296,Subway Mid Valley Southkey,"LG-004, Lower grounf floor, The Mall MID VALLEY Southkey, Mukim Plentong 80150 Johor.",1.501334,103.777419,"https://waze.com/ul?ll=1.501334,103.777419",Monday - Sunday (10:00AM - 10:00PM)
297,"Subway D'Garden BP","No. 12 (Ground Floor), Jalan Desa Botani 1 Taman Desa Botani, 83000 Batu Pahat, Johor",1.867258,102.932769,"https://waze.com/ul?ll=1.867258,102.932769",Monday - Sunday (8:00AM - 10:00PM)
298,Subway Plaza Merdeka,"Plaza Merdeka,  G-11 & G9(s), Grd Floor, 88 Pearl Street, 93000 Kuching, Sarawak.",1.558561,110.344021,https://www.waze.com/en/live-map/directions/my/sarawak/kuching/subway?place=ChIJdZisFe6n-zER_MlMHDGgTEQ,"Monday - Sunday, 10:00 AM - 10:00 PM"
299,Subway Bintang Megamall,"Bintang Megamall, Lot 1.43 & 1.40, First Floor, Jalan Miri-Pujut, 98000 Miri, Sarawak.",4.397048,113.993285,"https://www.waze.com/en/live-map/directions/subway-bintang-megamall-first-floor,-bintang-megamall-lot-1.43-and-1.40-miri?place=w.74711084.747045304.27398114","Monday - Sunday, 10:00 AM - 10:00 PM"
300,Subway Jalan Kulas,"Wisma Wan Abu Bakar, Groud Floor, Lot 110(SL7) Section 6 KLTD, Jalan Kulas, 93400 Kuching, Sarawak.",1.554539,110.331635,https://www.waze.com/en/live-map/directions/subway-sharifah-jalan-kulas-kuching?place=w.72286224.723058843.17907197,"Monday - Sunday, 9:30 AM - 10:00 PM"
301,Subway Al-Bayt Square,"Al-Bayt Square (Miri 101),  Lot3529, Grd Floor, Block 5,  Jalan Miri-Pujut, 98001 Miri, Sarawak",4.413015,114.010416,"https://www.waze.com/en/live-map/directions/subway-miri-101-al-bayt-square-(miri-101),-miri,-sarawak?place=w.74711084.747176377.14095116","Monday - Sunday, 7:30 AM - 9:00 PM"
302,Subway IMAGO Shopping Mall,"IMAGO Shopping Mall, Lot B-16, Basement Level, KK Times Square Phase 2, Off Coastal Highway, 88100 Kota Kinabalu, Sabah.",5.970862,116.066354,https://www.waze.com/en/live-map/directions/my/sabah/kota-kinabalu/subway-imago?place=ChIJC-AxiONpOzIRL_iXbVYlAeM,"Monday - Sunday, 10:00 AM - 10:00 PM"
303,Subway Suria Sabah Shopping Mall,"Suria Sabah Shopping Mall Lot B-11, Lower Ground Floor, 1, Jalan Tun Fuad Stephens,  88000 Kota Kinabalu, Sabah.",5.988772,116.078046,https://www.waze.com/en/live-map/directions/subway-suria-sabah-suria-sabah-shopping-mall-lot-b-11-kota-kinabalu?place=w.76087356.760742487.27401137,"Monday - Sunday, 10:00 AM - 10:00 PM"
304,Subway ITCC Penampang Shopping Mall,"ITCC Penampang Shopping Mall, Lot No. G-18, Ground Floor, Jalan Pintas Penampang, 89500 Kota Kinabalu, Sabah, Malaysia.",5.910259,116.091394,https://www.waze.com/en/live-map/directions/subway-itcc-jalan-pintas-penampang-penampang?place=w.76087355.760808015.25713301,"Monday - Sunday, 7:00 AM - 11:00 PM"
305,Subway Emart Batu Kawa,"Unit No. 108, Emart One Stop Shopping Mall, Lot 6369, Block 225, KNLD, Jalan Batu Kawa, 93250 Kuching, Sarawak.",1.507024,110.29926,https://www.waze.com/en/live-map/directions/my/sarawak/kuching/subway?place=ChIJj67ebMgJ-zERpJ9lyQN2S_c,"Monday - Sunday, 7:00 AM - 11:00 PM"
306,Subway EMart Bintulu Commercial Centre,"EMart Bintulu Commercial Centre,  Ground Floor, Sublot 8632,  Jalan Rakawi Yusuf, Tanjung Batu,  97000 Bintulu, Sarawak.",3.191092,113.046586,https://www.waze.com/en/live-map/directions/subway-emart-bintulu-emart-bintulu-commercial-centre-8632?place=w.74055712.740884799.25964730,"Monday - Sunday, 7:00 AM - 10:00 PM"
307,Subway One Arena,"One Arena, Pusat Komersil BDC, 8-A8-GF,  Jalan Datuk Chong Thien Vun, 91000 Tawau, Sabah.",4.258803,117.918825,https://www.waze.com/en/live-map/directions/my/sabah/tawau/subway?place=ChIJAahlDyWdFTIROj6kvid4Zyk,"Sunday - Thursday, 7:00 AM – 9:00PM; Friday & Saturday, 7:00 AM – 10:00PM"
308,Subway Lido Square,"Lot 6&7, Ground Floor Lido Square Mile 3, Penampang Road, Taman Che Mei, 88300 Kota Kinabalu, Sabah",5.943925,116.081376,https://www.waze.com/en/live-map/directions/my/sabah/kota-kinabalu/subway-lido-square?place=ChIJKWqYBpRpOzIRwtAFzDXt234,"Monday - Sunday, 7:00 AM - 10:00 PM"
309,Subway TT3 Plaza,"TT3 Plaza Grd Floor, Lot 3537, Sublot 36,  Tabuan Tranquility, Off Jalan Canna, 93350 Kuching.",1.513067,110.393288,https://www.waze.com/en/live-map/directions/subway-tt3-plaza-36-kuching?place=w.72351759.723452055.27071098,"Monday - Sunday, 7:00 AM - 9:00 PM"
310,Subway Jln Tun Jugah,"No.63, Grd Floor, Lot 10208,  801-2B Jalan Tun Jugah, Kampung Tabuan Dayak, 93350 Kuching, Sarawak.",1.527486,110.35733,https://www.waze.com/en/live-map/directions/my/sarawak/kuching/subway-jalan-tun-jugah?place=ChIJMS_0gymn-zER8-yCTmMpGkg,"Monday - Sunday, 7:00 AM - 11:00 PM"
311,Subway Permy Mall,"Permy Mall,  Lot114, Grd Floor,  Jalan Datuk Sri Joseph Balan Seling,  Bandar Baru Permy,  98000 Miri, Sarawak, Malaysia.",4.450033,114.038751,https://www.waze.com/en/live-map/directions/my/sarawak/miri/subway-permy-mall?place=ChIJyf4EIOxPHzIRK7x9QXQ4lTs,"Monday - Sunday, 9:00 AM - 10:00 PM"
312,Subway Jesselton Square,"Jesselton Square, Lot 1, No.5 Jalan Gaya,  Off Lorong Satu/ Jalan Haji Saman, 88000 Kota Kinabalu, Sabah.",5.990394,116.079463,https://www.waze.com/en/live-map/directions/my/sabah/kota-kinabalu/subway-jesselton-square?place=ChIJddC6zlhpOzIRwxZRauqldgU,"Monday - Sunday, 7:00 AM - 12:00 AM"
313,"Subway Hann's Residence","Hann's Residence, Lot R40 & R42, Retail Arcade, Jalan Wong King Huo, 96000 Sibu, Sarawak.",2.286028,111.84753,https://www.waze.com/en/live-map/directions/my/sarawak/sibu/subway@hanns-residence?place=ChIJy3pCiKx_9zER3FF2X8CuxBw,"Monday - Sunday, 10:00 AM - 10:00 PM"
314,Subway Plaza CKS Tuaran,"Plaza CKS Tuaran, Lot 52, Grd Floor, Block G, Kampung Tutoh, 89150 Tuaran, Sabah. ",6.188856,116.227933,https://www.waze.com/en/live-map/directions/my/sabah/tuaran/subway-cks-tuaran?place=ChIJVRW71SsROzIRshw13DMyloY,"Monday - Sunday, 7:00 AM - 11:00 PM"
315,Subway Kuching International Airport,"Kuching International Airport, Lot L3L10, Level 3, Departure Level, Jalan Lapangan Terbang, 93722 Kuching, Sarawak, Malaysia. ",1.486173,110.350244,"https://waze.com/ul?ll=1.486173,110.350244",
316,Subway Centre Point Sabah,"Lot No. S1, Basement, Centre Point Sabah, No. 1, Jln Centre Point, 88000 Kota Kinabalu, Sabah ",5.978147,116.071864,https://www.waze.com/en/live-map/directions/my/sabah/kota-kinabalu/subway-centre-point-sabah?place=ChIJJZ4LNHVpOzIRHucnwndZDc0,"Monday - Sunday, 8:00 AM - 9:00 PM"
317,Subway Servay Jaya Semporna,"Shop18, Servay Jaya Semporna, Lot 9-17, Jalan Bubul, Batu 2, 91308 Semporna, Sabah",4.461874,118.588457,https://www.waze.com/en/live-map/directions/my/sabah/semporna/subway-semporna?place=ChIJnX4Je4f_PzIROlhnLHIHztI,"Monday - Sunday, 7:00 AM - 9:30 PM"
318,Subway The Grand SS15,"G7, The Grand Subang Jaya, Jalan SS 15/8a, Ss 15, 47500 Subang Jaya, Selangor",3.074415,101.590297,https://www.waze.com/en/live-map/directions/my/selangor/subang-jaya/subway-the-grand-subang-jaya?place=ChIJJxTAK6JNzDER4MbW2WX_jG0,"Monday - Sunday, 8:00 AM - 10:00 PM"
319,Subway BHP Ayer Keroh,"BHP Ayer Keroh, Jalan Tun Abdul Razak, Taman Ayer Keroh Heights, 75450 Melaka",2.252449,102.291324,https://www.waze.com/en/live-map/directions/my/melaka/melaka/subway-bhp-taman-ayer-keroh-heights?place=ChIJnfStL5Ll0TERA0Fcjq4HsAU,"Monday - Sunday, 8:00 AM - 9:30 PM"
320,Subway Caltex BSU,"PT 28807, Jalan Persiaran E1/1, Seri Pristana, 47000 Sungai Buloh, Selangor ",3.205961,101.471908,https://www.waze.com/en/live-map/directions/my/selangor/sungai-buloh/subway-caltex-saujana-utama?place=ChIJdxB7sRFbzDERqKSJtxEL3Kw,"Monday - Sunday, 8:00 AM - 10:00 PM"
321,Subway Radia Bukit Jelutong,"G0-23, Radia Sales Gallery, Persiaran Arked, Bukit Jelutong, 40150 Shah Alam, Selangor",3.101122,101.535394,https://www.waze.com/en/live-map/directions/my/selangor/shah-alam/subway-radia-bukit-jelutong?place=ChIJ98G9H_JNzDERRS_vEqme9_s,"Monday - Sunday, 7:30 AM - 10:00 PM"
322,Subway Kelana Jaya (KJ),"Suite 109b, Ground Floor, Office Tower, Kelana Park View, No.1, Jalan SS6/2, 47301 Petaling Jaya, Selangor",3.100862,101.599716,https://www.waze.com/en/live-map/directions/my/selangor/pj/subway-kelana-jaya-or-kelana-parkview?place=ChIJRU4RwhBMzDERZ_FO9UjGJ7g,"Monday - Sunday, 8:30 AM - 8:30 PM"
323,Subway Mersing,"No. 345H (GF), Jalan Ismail, 86800 Mersing, Johor",2.430028,103.840984,https://www.waze.com/en/live-map/directions/my/johor/mersing/subway-mersing?place=ChIJ0yPVjr9LxTER1dgGU3Vagm4,"Monday - Sunday, 8:00 AM - 10:00 PM"
324,Subway KSL Esplanade,"G006, Ground Floor, KSL Esplanade Mall, 42500 Klang, Selangor",2.958405,101.467045,"https://www.waze.com/en/live-map/directions/subway-larkin-sentral-5b-04(b)-ground-floor,-larkin-bus-sentral-terminal-johor-bahru?place=w.67960847.679870614.27402349","Monday - Sunday, 8:00 AM - 11:00 PM"
325,Subway Sierra 16 Puchong,"Lot 3A-1, Sierra Fresco, Jln Sierra 10/1, Bandar 16 Sierra, 47110 Puchong, Selangor.",2.974426,101.655052,https://www.waze.com/en/live-map/directions/my/selangor/puchong/subway16sierra?place=ChIJ4cJ0tYW1zTERx74e0tVmW9g,Monday - Sunday (8:00AM - 10:00PM)
326,Subway Mydin RTC Gopeng,"G-21 & G-22, MYDIN Wholesale Hypermarket RTC Perak, 31600 Kampung Kepayang, Perak.",4.49374,101.153194,https://www.waze.com/en/live-map/directions/my/perak/gopeng/rtc-perak?place=ChIJUQ3XEubvyjERl0YWdaZvjfY,"Monday - Sunday, 8:00 AM - 10:00 PM"
327,Subway Lotus Teluk Intan,"FOL 05, LOTUS TELUK INTAN, PT 5017 Rapid Mall Seri Intan, Jalan Changkat Jong, 36000 Teluk Intan, Perak",4.017,101.028,https://www.waze.com/en/live-map/directions/my/perak/teluk-intan/lotuss-teluk-intan?place=ChIJ5dnTQ54VyzERCX3tYKHKR5k,"Monday - Sunday, 9:00 AM - 9:30 PM"
328,Subway Caltex Bukit Indah Ampang,"Caltex Bukit Indah, PT13887, Medan Bukit Indah, Taman Bukit Indah, 69000 Ampang, Selangor",3.152855,101.774414,"https://waze.com/ul?ll=3.152855,101.774414","Monday - Sunday, 8:00 AM - 10:00 PM"
329,Subway ROHAS KL,"No 9, Lot G-W-1, Ground Floor, West Wing, Rohas Pure Circle, Jalan P. Ramlee, 50450 Kuala Lumpur.",6.4065,100.179757,"https://waze.com/ul?ll=6.406500,100.179757",Monday - Sunday (8:00AM - 10:00PM)
330,Subway Shell Pulai Perdana,"Shell Sri Pulai Perdana 2, Lebuhraya Skudai-Pontian, Bandar Pulai Jaya, 81110 Johor Bahru, Johor.",1.567481,103.5957,"https://waze.com/ul?ll=1.567481,103.595700",Monday - Sunday (8:00AM - 10:00PM)
331,Subway Taman Danau Desa,,3.100857,101.687222,"https://waze.com/ul?ll=3.100857,101.687222",
332,Subway Setapak Central Mall,"Kl Festival City, Lot S-23, No 67 Jalan Taman Ibu Kota, Taman Danau Kota, Setapak, Kuala Lumpur, 53200",3.205267,101.72002,"https://waze.com/ul?ll=3.205267,101.720020",Monday - Sunday (10:00AM - 10:00PM)
333,Subway Seremban Prima Mall,"G-04A & G-04AA Ground Floor, Seremban Prima Mall, Lot 4973 Jalan Dato' Bandar Tunggal, Seremban, Negeri Sembilan, 70000, Malaysia",2.72017,101.940738,"https://waze.com/ul?ll=2.720170,101.940738",Monday - Sunday (9:00AM - 10:30PM)
334,Subway Sultan Ibrahim Stadium,"Lot Zone C 01-04, Stadium Sultan Ibrahim, Jalan Gelang Patah, 79200 Iskandar Puteri, Johor Bahru",1.4817,103.619228,"https://waze.com/ul?ll=1.481700,103.619228",Monday - Sunday (10:00AM - 10:00PM)
335,Subway Golden Triangle,"29-1-64, Golden Triangle, Jalan Paya Terubong, 11900 Bayan Lepas, Pulau Pinang",5.333125,100.275576,"https://waze.com/ul?ll=5.333125,100.275576",Monday - Sunday (8:00AM - 9:00PM)
336,Subway Batu 3 Gambang,"B 30 Jalan Kurnia Jaya 3,Batu 3, Jalan Gambang, 25150 Kuantan, Pahang Darul Makmur",3.782041,103.287223,"https://waze.com/ul?ll=3.782041,103.287223",Monday - Sunday (9:00AM - 10:00PM) 
337,Subway KIP Kota Warisan,"G13 & 13A, Kip Mall, Kota Warisan, 43900 Sepang, Selangor, Malaysia",2.834608,101.694666,"https://waze.com/ul?ll=2.834608,101.694666",Monday - Sunday (10:00AM - 10:00PM)
338,Subway Taman Ehsan,"No 520(GF) Jalan E3/8, Tmn Ehsan, 52100 Kepong, Selangor",3.220409,101.622847,"https://waze.com/ul?ll=3.220409,101.622847",Monday - Sunday (8:00AM - 10:00PM)
339,"Lotus's Indera Mahkota","G1, Lotus’S Indera Mahkota, Lot 144749, Lot 144746 & Lot 144045, Off Jalan Tun Razak Mukim Kuala Kuantan, Daerah Kuantan, 25200 Kuantan Pahang",3.827265,103.304433,"https://waze.com/ul?ll=3.827265,103.304433",Monday - Sunday (10:00AM - 10:00PM)
340,Subway Taman Sri Muda,"No 40 (GF), Jalan Murni 25/61, Taman Sri Muda, 40400 Shah Alam, Selangor",3.032726,101.536497,"https://waze.com/ul?ll=3.032726,101.536497",Monday - Sunday (8:00AM - 10:00PM)
341,Subway Pantai Batu Buruk,"Partial of Bangunan Kelab Kerajaan Pantai Batu Buruk, Jalan Pantai Batu Buruk, 20400 Kuala Terengganu, Terengganu.",5.324181,103.154071,"https://waze.com/ul?ll=5.324181,103.154071",Monday - Sunday (10:00AM - 10:00PM)
342,Subway Kangar Jaya,"Lot PT2269, Kangar Jaya, Mukim Seriab, Kangar, 01000 Perlis",6.4065,100.179757,"https://waze.com/ul?ll=6.406500,100.179757",Monday - Sunday (8:00AM - 11:00PM)
343,Subway Kota Laksamana,"No 46(GF) Jln KLJ, Taman Kota Laksamana Jaya, 75200 Melaka.",2.19893,102.230893,"https://waze.com/ul?ll=2.198930,102.230893",Monday - Sunday (8:00AM - 10:00PM)
344,Subway 1st Avenue,"LG-08 1st Avenue Mall, 182 Jalan Magazine, 10300 Penang.",5.41331,100.33114,"https://waze.com/ul?ll=5.413310,100.331140",Monday - Sunday (10:00AM - 10:00PM)
345,Subway Mid Valley KL,"1st Floor, Zone 3, Kiosk FK-05, Mid Valley Megamall,  Lingkaran Syed Putra, Mid Valley City, 59200 Kuala Lumpur",3.118753,101.677459,"https://waze.com/ul?ll=3.118753,101.677459",Monday - Sunday (8:00AM - 10:00PM)
346,Subway Lotus Ampang,"LOTUS’S AMPANG - OL1, Jalan Pandan Prima Dataran, Pandan Indah, 55100 Kuala Lumpur",3.143814,101.74163,"https://waze.com/ul?ll=3.143814,101.741630",Monday - Sunday (10:00AM - 10:00PM);  
347,Subway The Artiz JB,"No 25(GF) Jln Setia 3/13, Tmn Setia Indah, 81100 JB",1.576539,103.758845,"https://waze.com/ul?ll=1.576539,103.758845",Monday - Sunday (08:00AM - 10:00PM)
348,Subway Setia Tropika,"No 18 Jln Setia Tropika 1/18, Tmn Setia Tropika, 81200 JB",1.547172,103.715609,"https://waze.com/ul?ll=1.547172,103.715609",Monday - Sunday (08:00AM - 10:00PM)
349,Subway Razak City,"Block B-G-19 Residensi Bandar Razak, No 01 Jln Razak Mansion, 57100 Sungai Besi, K.L",3.108465,101.706308,"https://waze.com/ul?ll=3.108465,101.706308",Monday - Sunday (08:00AM to 10:00PM)
350,Subway C-Mart Changlun,"G 14, 15, 16, C- Mart @  Komplek Changloon, No 1, Pekan Changlun, Changloon,  Taman Kempas, 06010 Changlun, Kedah",6.435389,100.43025,"https://waze.com/ul?ll=6.435389,100.430250",Monday to Sunday (10:00AM - 10:00PM)
351,Subway Aeon Cheras Selatan,"F60, First Floor, ÆON Cheras Selatan, Lebuh Utama Tun Hussein Onn, Tun Hussein Onn, Cheras, Selangor",3.033015,101.765206,"https://waze.com/ul?ll=3.033015,101.765206",Monday to Sunday (10:00AM - 10:00PM)
352,Subway Bandar Baru Jelawat ,"PT 4359 (B) Kedai Jelawat, Bandar Baru Jelawat, 16070 Bachok, Kelantan.",6.011177,102.381749,"https://waze.com/ul?ll=6.011177,102.381749",Monday - Sunday (08:00 AM - 10:00PM) 
353,Subway Lumut Indah,"No 21(GF) Jln Lumut Indah 2/1, Tmn Lumut Indah, 32200 Lumut, Perak.",4.208528,100.638146,"https://waze.com/ul?ll=4.208528,100.638146",Monday - Sunday (08:00AM - 10:00PM)
354,Subway Cahaya Kota Puteri,"No 07(GF) Jln Kota 2, Taman Cahaya Kota Puteri, 81750 Masai, Johor.",1.49429,103.843649,"https://waze.com/ul?ll=1.494290,103.843649",Monday to Sunday (08:00AM - 10:00PM)
355,Subway Kuala Krai,"No 18(GF) Jln lf 1, Laman Firdaus, Bandar Baru Kuala Krai, 18000 Kuala Krai, Kelantan.",5.494022,102.223109,"https://waze.com/ul?ll=5.494022,102.223109",Monday to Sunday (08:00AM - 10:00PM)
356,Taman Nusa Bestari,"No 26(GF) Jln Jati 1, Taman Nusa Bestari, 81200 Skudai, Johor.",1.499214,103.655946,"https://waze.com/ul?ll=1.499214,103.655946",Monday - Sunday (08:00AM - 10:00PM)
357,Subway Kuala Berang,"No 292(GF) Jln Besar Kuala Berang, 21700 Kuala Berang, Hulu Terengganu, Terengganu.",5.07283,103.01066,"https://waze.com/ul?ll=5.072830,103.010660",Monday - Sunday (08:00AM - 10:00PM)
358,Subway Sg Udang,"No 06(GF) Jln Kerambit 1A, Bandar Baru, 76450 Sg. Udang, Melaka.",2.290353,102.138712,"https://waze.com/ul?ll=2.290353,102.138712",Monday - Sunday (08:00AM - 10:00PM)
359,Subway Kiara Bay,"""Lot G-22, The Beat Kiara Bay Kepong Metropolitan Park,Jalan Lingkaran Tengah 52100 Kuala Lumpur.""",3.226999,101.650259,"https://waze.com/ul?ll=3.226999,101.650259",Monday - Sunday (10:00AM - 10:00PM)
360,Subway Mahkota Square Kuantan,"""G-10, Tingkat Bawah, Mahkota Square, Jalan Mahkota  25000 Kuantan, Pahang.""",3.806067,103.327962,"https://waze.com/ul?ll=3.806067,103.327962",Monday - Sunday (08:00AM - 10:00PM)
361,Subway Putra Ampang,"No 46-G, Jalan Bunga Tanjung 9B, Taman Putra, Ampang 68000, Selangor ",3.120457,101.762861,"https://waze.com/ul?ll=3.120457,101.762861",Monday - Sunday (08:00AM - 10:00PM)
362,Subway Sunggala Gateway,"PD Sunggala Gatewa3 No 4, Lot 2031, Taman Sri Rusa Jaya,71050 Port Dickson, Negeri Sembilan",2.476273,101.855712,"https://waze.com/ul?ll=2.476273,101.855712",Monday - Sunday (09:00AM - 10:00PM)
363,Subway Sunway Carnival,"LG-31, Lower Ground Floor, Sunway Carnival Mall, 3068, Jalan Todak, Pusat Bandar Seberang Jaya, 13700 Perai, Pulau Pinang",5.399101,100.397841,"https://waze.com/ul?ll=5.399101,100.397841",Monday - Sunday (9:00AM - 10:00PM)
364,Subway Bangi Seksyen 7,"No.19-G, Jalan 7/7A, Seksyen 7, Bandar Baru Bangi, 43650 Selangor",2.969764,101.773828,"https://waze.com/ul?ll=2.969764,101.773828",Monday - Sunday (08:00AM - 10:00PM)